,SCHOOL NAME,CITY,COUNTY,ZIP,SCHOOL TYPE,ENROLLED,% IMMUNE MMR
0,AMERISCHOOLS ACADEMY - YUMA SOUTH CAMPUS,YUMA,YUMA,85364.0,CHARTER,21,0.86
1,ASH FORK ELEMENTARY SCHOOL,ASH FORK,YAVAPAI,86320.0,PUBLIC,21,0.95
2,CALVARY CHAPEL CHRISTIAN SCHOOL,TUCSON,PIMA,85710.0,PRIVATE,21,0.91
3,CANYON POINTE ACADEMY,GLENDALE,MARICOPA,85308.0,CHARTER,21,0.91
4,CHILDREN REACHING FOR THE SKY PREPARATORY,TUCSON,PIMA,85711.0,CHARTER,21,0.81
5,COLLIER ELEMENTARY SCHOOL,TUCSON,PIMA,85749.0,PUBLIC,21,0.95
6,IMMACULATE CONCEPTION CATHOLIC SCHOOL,COTTONWOOD,YAVAPAI,86326.0,PRIVATE,21,0.81
7,JEEHDEEZ'A ACADEMY (LOW MOUNTAIN),LOW MOUNTAIN,NAVAJO,86503.0,PUBLIC,21,1.0
8,LIBERTY TRADITIONAL CHARTER SCHOOL - SADDLEBACK,DOUGLAS,COCHISE,85607.0,CHARTER,21,1.0
9,LIBERTY TRADITIONAL CHARTER SCHOOL - SADDLEBACK,DOUGLAS,COCHISE,85607.0,CHARTER,21,1.0
10,LIBERTY TRADITIONAL CHARTER SCHOOL - SADDLEBACK,DOUGLAS,COCHISE,85607.0,CHARTER,21,1.0
11,MARY C O'BRIEN ELEMENTARY SCHOOL,CASA GRANDE,PINAL,85294.0,PUBLIC,21,0.86
12,MEXICAYOTL ACADEMY K-5,TUCSON,PIMA,85705.0,CHARTER,21,1.0
13,PARAMOUNT ACADEMY,PEORIA,MARICOPA,85345.0,CHARTER,21,1.0
14,PINE FOREST SCHOOL,FLAGSTAFF,COCONINO,86001.0,CHARTER,21,0.33
15,SAINT JEROME CATHOLIC SCHOOL,PHOENIX,MARICOPA,85029.0,PRIVATE,21,0.95
16,SAINT JOSEPH CATHOLIC SCHOOL,TUCSON,PIMA,85711.0,PRIVATE,21,0.95
17,SAINT LOUIS THE KING SCHOOL,GLENDALE,MARICOPA,85301.0,PRIVATE,21,1.0
18,VERDE CHRISTIAN ACADEMY,COTTONWOOD,YAVAPAI,86326.0,PRIVATE,21,0.95
19,CREO SCHOOL,,MARICOPA,,PRIVATE,22,0.59
20,DESERT VIEW LEARNING CENTER,PARADISE VALLEY,MARICOPA,,PRIVATE,22,0.73
21,EDISON SCHOOL OF INNOVATION,GLENDALE,MARICOPA,85305.0,CHARTER,22,1.0
22,FRANKLIN PHONETIC PRIMARY SCHOOL SUNNYSLOPE,PHOENIX,MARICOPA,85020.0,CHARTER,22,0.86
23,HOLLADAY INTERMEDIATE MAGNET SCHOOL,TUCSON,PIMA,85713.0,PUBLIC,22,0.86
24,KHALSA MONTESSORI PRIMARY SCHOOL,PHOENIX,MARICOPA,85004.0,CHARTER,22,0.91
25,NEW HORIZON SCHOOL FOR THE PERFORMING ART,MESA,MARICOPA,85204.0,CHARTER,22,1.0
26,OAK CREEK SCHOOL,CORNVILLE,YAVAPAI,86325.0,PUBLIC,22,0.82
27,SAINT PETER INDIAN MISSION SCHOOL,BAPCHULE,PINAL,,PRIVATE,22,0.96
28,TELESIS PREPARATORY,LAKE HAVASU CITY,MOHAVE,86403.0,CHARTER,22,0.96
29,TUCSON WALDORF SCHOOL,TUCSON,PIMA,85718.0,PRIVATE,22,0.32
30,VAIL ACADEMY & HIGH SCHOOL,TUCSON,PIMA,85747.0,CHARTER,22,0.96
31,ARIZONA CULTURAL ACADEMY,PHOENIX,MARICOPA,85042.0,PRIVATE,23,1.0
32,ARTHUR M HAMILTON SCHOOL,PHOENIX,MARICOPA,85009.0,PUBLIC,23,1.0
33,CAMBRIDGE ACADEMY - QUEEN CREEK,MESA,MARICOPA,85207.0,CHARTER,23,0.83
34,IMMACULATE CONCEPTION ELEMENTARY SCHOOL,YUMA,YUMA,85364.0,PRIVATE,23,1.0
35,PERIDOT LUTHERAN ELEMENTARY SCHOOL,PERIDOT,GILA,85542.0,PRIVATE,23,0.78
36,THE PEAK SCHOOL,FLAGSTAFF,COCONINO,86004.0,CHARTER,23,0.96
37,TELESIS PREPARATORY,LAKE HAVASU CITY,MOHAVE,86403.0,CHARTER,23,0.83
38,TUCSON WALDORF SCHOOL,TUCSON,PIMA,85718.0,PRIVATE,23,0.48
39,WESTLAND SCHOOL BRIGHTON CAMPUS,GLENDALE,MARICOPA,85305.0,CHARTER,23,0.91
40,AJO ELEMENTARY SCHOOL,AJO,PIMA,85321.0,PUBLIC,24,0.92
41,ALL ABOARD CHARTER SCHOOL,PHOENIX,MARICOPA,85017.0,CHARTER,24,0.79
42,CHRIST THE KING CATHOLIC SCHOOL,MESA,MARICOPA,85204.0,PRIVATE,24,0.88
43,DESERT SUN CHILD DEVELOPMENT - KINDERGARTEN,CHANDLER,MARICOPA,85224.0,PRIVATE,24,0.88
44,FLAGSTAFF JUNIOR ACADEMY ELEMENTARY CAMPUS,FLAGSTAFF,COCONINO,,PUBLIC,24,0.92
45,MESA ARTS ACADEMY,MESA,MARICOPA,85210.0,CHARTER,24,1.0
46,NOOR ACADEMY OF ARIZONA,TEMPE,MARICOPA,85282.0,PRIVATE,24,0.88
47,PRIMROSE SCHOOL OF FLETCHER HEIGHTS,,MARICOPA,,PRIVATE,24,0.5
48,RANCHO SOLANO PREPARATORY SCHOOL - GREENWAY,SCOTTSDALE,MARICOPA,85254.0,PRIVATE,24,0.96
49,SAINT MICHAEL INDIAN SCHOOL,SAINT MICHAELS,APACHE,,PRIVATE,24,0.71
50,SAINT MICHAEL'S PARISH DAY SCHOOL,TUCSON,PIMA,85711.0,PRIVATE,24,0.96
51,TSEHOOTSOOI DINE BI'OLTA' (NAVAJO IMMERSION),FORT DEFIANCE,APACHE,86504.0,PUBLIC,24,1.0
52,WESTLAND SCHOOL BRIGHTON CAMPUS,GLENDALE,MARICOPA,85305.0,CHARTER,24,0.92
53,CAPPS MIDDLE SCHOOL (GR 4-6),HEBER,NAVAJO,85928.0,PUBLIC,25,0.88
54,CHILDREN FIRST ACADEMY - PHOENIX,PHOENIX,MARICOPA,85034.0,CHARTER,25,1.0
55,DESERT CHRISTIAN K-8 SCHOOL,TUCSON,PIMA,85715.0,PRIVATE,25,0.92
56,FIRST BAPTIST CHRISTIAN ACADEMY,SIERRA VISTA,COCHISE,85635.0,PRIVATE,25,1.0
57,GILBERT ARTS ACADEMY,GILBERT,MARICOPA,85234.0,CHARTER,25,0.84
58,GRAND CANYON ELEMENTARY,GRAND CANYON,COCONINO,86023.0,PUBLIC,25,0.92
59,HUACHUCA CITY ELEMENTARY SCHOOL,HUACHUCA CITY,COCHISE,85616.0,PUBLIC,25,0.96
60,HUDLOW ELEMENTARY SCHOOL,TUCSON,PIMA,85710.0,PUBLIC,25,0.96
61,INTERNATIONAL SCHOOL OF TUCSON,TUCSON,PIMA,85719.0,PRIVATE,25,0.96
62,KINDERTOTS,,MARICOPA,,PRIVATE,25,0.68
63,MEXICAYOTL CHARTER SCHOOL,NOGALES,SANTA CRUZ,85621.0,CHARTER,25,1.0
64,MEYER MONTESSORI,TEMPE,MARICOPA,,PUBLIC,25,0.84
65,MOUNTAIN MEADOWS PRIMARY (GR K-3),OVERGAARD,NAVAJO,85933.0,PUBLIC,25,0.96
66,SAINT AMBROSE SCHOOL,TUCSON,PIMA,85716.0,PRIVATE,25,1.0
67,SKYVIEW SCHOOL,PRESCOTT,YAVAPAI,86303.0,CHARTER,25,0.72
68,SONORAN SCIENCE ACADEMY - PHOENIX,PHOENIX,MARICOPA,85008.0,CHARTER,25,0.88
69,ANNUNCIATION CATHOLIC SCHOOL,CAVE CREEK,MARICOPA,85331.0,PRIVATE,26,0.96
70,DESERT GARDEN MONTESSORI,PHOENIX,MARICOPA,85044.0,PRIVATE,26,0.77
71,DUNCAN ELEMENTARY SCHOOL,DUNCAN,GREENLEE,85534.0,PUBLIC,26,0.92
72,EAGLE COLLEGE PREP HARMONY,PHOENIX,MARICOPA,85040.0,CHARTER,26,1.0
73,EMMANUEL CHRISTIAN ACADEMY,KINGMAN,MOHAVE,86401.0,PRIVATE,26,0.77
74,JOY CHRISTIAN SCHOOL,GLENDALE,MARICOPA,85308.0,PRIVATE,26,0.58
75,PAUL DUNBAR LAWRENCE SCHOOL,PHOENIX,MARICOPA,85007.0,PUBLIC,26,0.96
76,ROBISON ELEMENTARY SCHOOL,TUCSON,PIMA,85716.0,PUBLIC,26,1.0
77,SAFFORD ELEMENTARY SCHOOL,TUCSON,PIMA,,PUBLIC,26,0.96
78,SAINT AGNES CATHOLIC SCHOOL,PHOENIX,MARICOPA,85006.0,PRIVATE,26,0.5
79,ARLINGTON ELEMENTARY SCHOOL,ARLINGTON,MARICOPA,85322.0,PUBLIC,27,1.0
80,HAVASU PREPARATORY ACADEMY,LAKE HAVASU CITY,MOHAVE,86406.0,CHARTER,27,0.96
81,LORETTO CATHOLIC SCHOOL,DOUGLAS,COCHISE,85607.0,PRIVATE,27,1.0
82,NORTH VALLEY CHRISTIAN ACADEMY,PHOENIX,MARICOPA,85085.0,PRIVATE,27,0.82
83,SAINT FRANCIS OF ASSISI SCHOOL,YUMA,YUMA,85364.0,PRIVATE,27,1.0
84,ST ANDREWS PRESCHOOL & KINDERGARTEN,,PIMA,,PRIVATE,27,0.89
85,BENNETT ACADEMY - VENTURE SITE,PHOENIX,MARICOPA,85021.0,CHARTER,28,0.79
86,FESTIVAL FOOTHILLS ELEMENTARY SCHOOL,BUCKEYE,MARICOPA,85396.0,PUBLIC,28,0.96
87,INTERNATIONAL SCHOOL OF ARIZONA,,MARICOPA,,PRIVATE,28,0.82
88,LEONOR HAMBLY K-8,WINKLEMAN,GILA,85292.0,PUBLIC,28,1.0
89,LINDEN ELEMENTARY SCHOOL,LINDEN,NAVAJO,85901.0,PUBLIC,28,0.86
90,MONTESSORI SCHOOLHOUSE-85705,TUCSON,PIMA,85705.0,CHARTER,28,0.82
91,OUR MOTHER OF SORROWS SCHOOL,TUCSON,PIMA,85710.0,PRIVATE,28,1.0
92,PUSCH RIDGE CHRISTIAN ACADEMY,TUCSON,PIMA,85704.0,PRIVATE,28,0.79
93,TRINITY CHRISTIAN SCHOOL,PRESCOTT,YAVAPAI,86301.0,PRIVATE,28,0.79
94,WEST VALLEY CHRISTIAN SCHOOL,GOODYEAR,MARICOPA,85338.0,PRIVATE,28,0.71
95,COUNTRY GARDENS CHARTER SCHOOL,LAVEEN,MARICOPA,85339.0,CHARTER,29,0.83
96,ECHO CANYON K-8,SCOTTSDALE,MARICOPA,85251.0,PUBLIC,29,0.93
97,IMAGINE WEST GILBERT ELEMENTARY,GILBERT,MARICOPA,85295.0,CHARTER,29,0.97
98,KEYSTONE MONTESSORI CHARTER SCHOOL,PHOENIX,MARICOPA,85048.0,CHARTER,29,0.83
99,KHALSA MONTESSORI SCHOOL - RIVER RD,TUCSON,PIMA,85718.0,CHARTER,29,0.76
100,LIBERTY TRADITIONAL CHARTER SCHOOL,PHOENIX,MARICOPA,85031.0,CHARTER,29,0.97
101,MALDONADO AMELIA ELEMENTARY SCHOOL,TUCSON,PIMA,85746.0,PUBLIC,29,1.0
102,MISSION MONTESSORI ACADEMY,SCOTTSDALE,MARICOPA,,CHARTER,29,0.62
103,CANYON ELEMENTARY SCHOOL,GLENDALE,MARICOPA,85306.0,PUBLIC,30,0.9
104,DUNHAM ELEMENTARY SCHOOL,TUCSON,PIMA,85748.0,PUBLIC,30,0.97
105,LEUPP PUBLIC SCHOOL,LEUPP,COCONINO,86035.0,PUBLIC,30,1.0
106,"MANY FARMS COMMUNITY SCHOOL, INC",MANY FARMS,APACHE,86538.0,PUBLIC,30,0.97
107,MONTESSORI DAY PUBLIC SCHOOLS  - MOUNTAINSIDE,PHOENIX,MARICOPA,85020.0,CHARTER,30,0.87
108,SOUTHSIDE COMMUNITY SCHOOL,TUCSON,PIMA,85713.0,CHARTER,30,1.0
109,YAVAPAI ELEMENTARY SCHOOL,SCOTTSDALE,MARICOPA,85257.0,PUBLIC,30,0.97
110,CAVETT ELEMENTARY SCHOOL,TUCSON,PIMA,85713.0,PUBLIC,31,1.0
111,GILA BEND ELEMENTARY SCHOOL,GILA BEND,MARICOPA,,CHARTER,31,0.97
112,LEMAN ACADEMY OF EXCELLENCE - EAST MESA,MESA,MARICOPA,85212.0,CHARTER,31,0.84
113,MAXINE O BUSH ELEMENTARY SCHOOL,PHOENIX,MARICOPA,85042.0,PUBLIC,31,1.0
114,SAINT ELIZABETH ANN SETON SCHOOL,TUCSON,PIMA,85742.0,PRIVATE,31,1.0
115,ACADEMY OF TUCSON ELEMENTARY SCHOOL,TUCSON,PIMA,85715.0,CHARTER,32,0.84
116,FRANCES J WARREN ELEMENTARY SCHOOL,TUCSON,PIMA,85746.0,PUBLIC,32,1.0
117,GLOBAL ACADEMY OF PHOENIX,PHOENIX,MARICOPA,85301.0,PUBLIC,32,0.94
118,GREENWAY ELEMENTARY SCHOOL,BISBEE,COCHISE,85603.0,PUBLIC,32,0.91
119,KACHINA ELEMENTARY SCHOOL,GLENDALE,MARICOPA,85306.0,PUBLIC,32,1.0
120,MANY FARMS PUBLIC SCHOOL,CHINLE,APACHE,86538.0,PUBLIC,32,1.0
121,OUR LADY OF PERPETUAL HELP SCHOOL-85301,GLENDALE,MARICOPA,85301.0,PRIVATE,32,0.97
122,TRINITY LUTHERAN ELEMENTARY SCHOOL,LITCHFIELD PARK,MARICOPA,85340.0,PRIVATE,32,0.97
123,TRINITY LUTHERAN ELEMENTARY SCHOOL,LITCHFIELD PARK,MARICOPA,85340.0,PRIVATE,32,0.91
124,CALVARY CHRISTIAN ACADEMY,LAKE HAVASU CITY,MOHAVE,86406.0,PRIVATE,33,0.85
125,CENTER FOR EDUCATIONAL EXCELLENCE,TEMPE,MARICOPA,85284.0,CHARTER,33,0.94
126,FARAS ELEMENTARY SCHOOL,PIRTLEVILLE,COCHISE,85607.0,PUBLIC,33,1.0
127,MAMMOTH SAN MANUEL PK-12 ELEMENTARY(K-5),SAN MANUEL,PINAL,85631.0,PUBLIC,33,0.97
128,MOUNTAIN SCHOOL,FLAGSTAFF,COCONINO,86005.0,CHARTER,33,0.88
129,PALOMINAS ELEMENTARY SCHOOL,HEREFORD,COCHISE,85615.0,PUBLIC,33,0.91
130,BEAVER DAM ELEMENTARY SCHOOL,LITTLEFIELD,MOHAVE,86432.0,PUBLIC,34,0.88
131,FREEDOM ACADEMY,PHOENIX,MARICOPA,85032.0,CHARTER,34,0.82
132,MILES-EXPLORATORY LEARNING CENTER,TUCSON,PIMA,85719.0,PUBLIC,34,0.97
133,SAINT THERESA CATHOLIC SCHOOL,PHOENIX,MARICOPA,85018.0,PRIVATE,34,1.0
134,TRINITY CHRISTIAN SCHOOL,PRESCOTT,YAVAPAI,86301.0,PRIVATE,34,0.74
135,MORGAN MAXWELL SCHOOL,TUCSON,PIMA,85745.0,PUBLIC,35,0.97
136,OCHOA ELEMENTARY SCHOOL,TUCSON,PIMA,85713.0,PUBLIC,35,0.97
137,W ARTHUR SEWEL ELEMENTARY SCHOOL,TUCSON,PIMA,85711.0,PUBLIC,35,0.94
138,WHITTIER ELEMENTARY SCHOOL-85006,PHOENIX,MARICOPA,85006.0,PUBLIC,35,0.97
139,COLEGIO PETITE,,SANTA CRUZ,,PRIVATE,36,0.83
140,DESERT MARIGOLD SCHOOL,PHOENIX,MARICOPA,85042.0,CHARTER,36,0.5
141,JOHN R DAVIS SCHOOL,PHOENIX,MARICOPA,85041.0,PUBLIC,36,0.97
142,PHOENIX COUNTRY DAY SCHOOL,PARADISE VALLEY,MARICOPA,85253.0,PRIVATE,36,0.86
143,SUMMIT SCHOOL OF AHWATUKEE,PHOENIX,MARICOPA,85048.0,PRIVATE,36,0.86
144,TOLTEC ELEMENTARY  SCHOOL,ELOY,PINAL,85131.0,PUBLIC,36,0.92
145,VAL VISTA ACADEMY - A BALL CHARTER SCHOOL,GILBERT,MARICOPA,85297.0,CHARTER,36,0.92
146,TULLY ELEMENTARY ACCELERATED MAGNET SCHOOL,TUCSON,PIMA,85745.0,PUBLIC,36,0.97
147,CAMBRIDGE ACADEMY - MESA CAMPUS,MESA,MARICOPA,85207.0,CHARTER,37,0.89
148,HERMOSA MONTESSORI SCHOOL,TUCSON,PIMA,85749.0,CHARTER,37,0.81
149,OUR LADY OF MOUNT CARMEL SCHOOL,TEMPE,MARICOPA,85282.0,PRIVATE,37,0.92
150,RALPH WALDO EMERSON ELEMENTARY SCHOOL,PHOENIX,MARICOPA,85006.0,PUBLIC,37,0.97
151,SONORAN SCIENCE ACADEMY - PEORIA,PEORIA,MARICOPA,85382.0,CHARTER,37,0.97
152,YAVAPAI ELEMENTARY SCHOOL,SCOTTSDALE,MARICOPA,85257.0,PUBLIC,37,1.0
153,CASAS CHRISTIAN SCHOOL,TUCSON,PIMA,85742.0,PRIVATE,38,0.9
154,DESERT OASIS ELEMENTARY SCHOOL-85387,SURPRISE,MARICOPA,85387.0,PUBLIC,38,0.95
155,EAGLE COLLEGE PREP - MESA,MESA,MARICOPA,85203.0,CHARTER,38,1.0
156,FORT THOMAS ELEMENTARY SCHOOL,FORT THOMAS,GRAHAM,85536.0,PUBLIC,38,1.0
157,IRA A MURPHY SCHOOL,PEORIA,MARICOPA,85345.0,PUBLIC,38,0.92
158,MISSION VIEW ELEMENTARY SCHOOL,TUCSON,PIMA,85713.0,PUBLIC,38,0.97
159,NEW RIVER ELEMENTARY SCHOOL,PHOENIX,MARICOPA,85087.0,PUBLIC,38,0.82
160,SAINT JOHN THE EVANGELIST SCHOOL,TUCSON,PIMA,85713.0,PRIVATE,38,1.0
161,AMERISCHOOLS ACADEMY - YUMA NORTH CAMPUS,YUMA,YUMA,85364.0,CHARTER,39,0.97
162,AVALON ELEMENTARY,APACHE JUNCTION,PINAL,85220.0,CHARTER,39,0.87
163,BOOTH-FICKETT MATH/SCIENCE K-8 MAGNET SCHOOL,TUCSON,PIMA,85710.0,PUBLIC,39,1.0
164,CENTER FOR ACADEMIC SUCCESS #3,DOUGLAS,COCHISE,85607.0,CHARTER,39,0.87
165,CHRIST'S GREENFIELD LUTHERAN SCHOOL,GILBERT,MARICOPA,85234.0,PRIVATE,39,0.95
166,COPPER RIDGE SCHOOL,SCOTTSDALE,MARICOPA,85255.0,PUBLIC,39,0.9
167,COTTONWOOD ELEMENTARY,COLORADO CITY,MOHAVE,86021.0,PUBLIC,39,0.13
168,HOWELL PETER ELEMENTARY SCHOOL,TUCSON,PIMA,85711.0,PUBLIC,39,0.97
169,PUEBLO GARDENS ELEMENTARY SCHOOL,TUCSON,PIMA,85713.0,PUBLIC,39,1.0
170,SAINT CYRIL OF ALEXANDRIA SCHOOL,TUCSON,PIMA,85712.0,PRIVATE,39,1.0
171,SAINTS PETER & PAUL CATHOLIC SCHOOL,TUCSON,PIMA,85719.0,PRIVATE,39,0.95
172,VECTOR PREP AND ARTS ACADEMY,CHANDLER,MARICOPA,85225.0,CHARTER,39,1.0
173,T G BARR SCHOOL,PHOENIX,MARICOPA,85042.0,PUBLIC,39,1.0
174,TEMPE MONTESSORI SCHOOL,MESA,MARICOPA,85202.0,PRIVATE,39,0.69
175,VAL VISTA ACADEMY - A BALL CHARTER SCHOOL,GILBERT,MARICOPA,85297.0,CHARTER,39,0.9
176,GEORGE WASHINGTON CARVER ELEMENTARY SCHOOL,YUMA,YUMA,85364.0,PUBLIC,40,0.98
177,RED ROCK ELEMENTARY SCHOOL,RED ROCK,PINAL,85245.0,PUBLIC,40,0.93
178,ST. JOHN BOSCO CATHOLIC SCHOOL PROGRAM,,MARICOPA,,PRIVATE,40,0.95
179,TOLSON ELEMENTARY SCHOOL,TUCSON,PIMA,85745.0,PUBLIC,40,0.95
180,CENTER FOR ACADEMIC SUCCESS #5,SIERRA VISTA,COCHISE,85635.0,CHARTER,41,0.95
181,DAVIDSON ELEMENTARY SCHOOL,TUCSON,PIMA,85712.0,PUBLIC,41,0.95
182,DIETZ K-8 SCHOOL,TUCSON,PIMA,85710.0,PUBLIC,41,0.93
183,HERITAGE SCHOOL,GLENDALE,MARICOPA,85302.0,PUBLIC,41,0.95
184,MAYER ELEMENTARY SCHOOL,MAYER,YAVAPAI,86333.0,PUBLIC,41,0.88
185,RIVERBEND PREP,LAVEEN,MARICOPA,85339.0,CHARTER,41,0.68
186,SAINT GREGORY SCHOOL,PHOENIX,MARICOPA,85015.0,PRIVATE,41,0.9
187,SAINT MARY-BASHA CATHOLIC SCHOOL,CHANDLER,MARICOPA,85225.0,PRIVATE,41,0.98
188,THE BEREAN ACADEMY,SIERRA VISTA,COCHISE,85635.0,CHARTER,41,0.85
189,W ARTHUR SEWEL ELEMENTARY SCHOOL,TUCSON,PIMA,85711.0,PUBLIC,41,0.98
190,ANTHEM SCHOOL,ANTHEM,MARICOPA,85086.0,PUBLIC,42,0.98
191,BLENMAN ELEMENTARY SCHOOL,TUCSON,PIMA,85716.0,PUBLIC,42,1.0
192,DESERT STAR ACADEMY,FORT MOHAVE,MOHAVE,,CHARTER,42,0.95
193,NACO ELEMENTARY SCHOOL,NACO,COCHISE,,PUBLIC,42,1.0
194,THORNYDALE ELEMENTARY SCHOOL,TUCSON,PIMA,85741.0,PUBLIC,42,0.93
195,ANNA HENRY ELEMENTARY SCHOOL,TUCSON,PIMA,85710.0,PUBLIC,43,0.95
196,BAGDAD ELEMENTARY SCHOOL,BAGDAD,YAVAPAI,86321.0,PUBLIC,43,0.91
197,CACTUS WREN ELEMENTARY SCHOOL,PHOENIX,MARICOPA,85051.0,PUBLIC,43,1.0
198,CANYON DE CHELLY ELEMENTARY SCHOOL,CHINLE,APACHE,86503.0,PUBLIC,43,1.0
199,CORONADO ELEMENTARY SCHOOL,SIERRA VISTA,COCHISE,85650.0,PUBLIC,43,0.77
200,COUNTRYSIDE ELEMENTARY,SURPRISE,MARICOPA,85379.0,PUBLIC,43,0.93
201,FORD ELEMENTARY SCHOOL,TUCSON,PIMA,85730.0,PUBLIC,43,1.0
202,FREEDOM TRADITIONAL ACADEMY,SURPRISE,MARICOPA,85374.0,PUBLIC,43,0.91
203,HAVASUPAI ELEMENTARY SCHOOL,LAKE HAVASU CITY,MOHAVE,86404.0,PUBLIC,43,0.91
204,IGNACIO CONCHOS ELEMENTARY SCHOOL,PHOENIX,MARICOPA,85041.0,PUBLIC,43,0.95
205,LA PALOMA ACADEMY SOUTH,TUCSON,PIMA,85706.0,CHARTER,43,0.95
206,LIBERTY ARTS ACADEMY,MESA,MARICOPA,85212.0,CHARTER,43,0.86
207,MONTESSORI EDUCATION CENTRE CHARTER SCHOOL-85204,MESA,MARICOPA,85204.0,CHARTER,43,0.63
208,PECAN GROVE ELEMENTARY SCHOOL,YUMA,YUMA,85364.0,PUBLIC,43,0.98
209,TULLY ELEMENTARY ACCELERATED MAGNET SCHOOL,TUCSON,PIMA,85745.0,PUBLIC,43,1.0
210,WILLIAMS ELEMENTARY/MIDDLE SCHOOL,WILLIAMS,COCONINO,86046.0,PUBLIC,43,0.77
211,ALICE BYRNE ELEMENTARY SCHOOL,YUMA,YUMA,85364.0,PUBLIC,44,0.93
212,ALL SAINTS EPISCOPAL DAY SCHOOL,PHOENIX,MARICOPA,85012.0,PRIVATE,44,0.98
213,CESAR E CHAVEZ COMMUNITY SCHOOL,PHOENIX,MARICOPA,85040.0,PUBLIC,44,0.96
214,DESTINY SCHOOL,GLOBE,GILA,85501.0,CHARTER,44,0.91
215,ETHOS ACADEMY,GLENDALE,MARICOPA,85302.0,CHARTER,44,0.64
216,GAVILAN PEAK ELEMENTARY,ANTHEM,MARICOPA,85086.0,PUBLIC,44,0.93
217,LA SENITA ELEMENTARY SCHOOL,KINGMAN,MOHAVE,,PUBLIC,44,0.86
218,MARSHALL ELEMENTARY SCHOOL,TUCSON,PIMA,85710.0,PUBLIC,44,1.0
219,ORO GRANDE ELEMENTARY SCHOOL,LAKE HAVASU CITY,MOHAVE,86406.0,PUBLIC,44,1.0
220,PATHFINDER ACADEMY,MESA,MARICOPA,85207.0,CHARTER,44,0.73
221,ROOSEVELT SCHOOL,YUMA,YUMA,85364.0,PUBLIC,44,1.0
222,WEST SEDONA ELEMENTARY SCHOOL,SEDONA,YAVAPAI,86336.0,PUBLIC,44,0.77
223,VISTA COLLEGE PREP - MARYVALE,PHOENIX,MARICOPA,85035.0,CHARTER,44,0.96
224,WARD TRADITIONAL ACADEMY,TEMPE,MARICOPA,85282.0,PUBLIC,44,0.93
225,HUMBOLDT ELEMENTARY SCHOOL,HUMBOLT,YAVAPAI,86329.0,PUBLIC,45,0.93
226,MONTESSORI EDUCATION CENTRE CHARTER SCHOOL-85203,MESA,MARICOPA,85203.0,CHARTER,45,0.78
227,WEST SEDONA ELEMENTARY SCHOOL,SEDONA,YAVAPAI,86336.0,PUBLIC,45,0.73
228,YUMA LUTHERAN SCHOOL,YUMA,YUMA,85365.0,PRIVATE,45,0.98
229,ACADEMY DEL SOL,TUCSON,PIMA,85705.0,CHARTER,46,1.0
230,CHRIST LUTHERAN SCHOOL,PHOENIX,MARICOPA,85018.0,PRIVATE,46,0.89
231,EAGLE COLLEGE PREP - MARYVALE,PHOENIX,MARICOPA,85031.0,CHARTER,46,1.0
232,LEARNING FOUNDATION AND PERFORMING ARTS WARNER,GILBERT,MARICOPA,85296.0,CHARTER,46,0.78
233,PEORIA TRADITIONAL SCHOOL,PEORIA,MARICOPA,85382.0,PUBLIC,46,0.87
234,PRESIDIO SCHOOL,TUCSON,PIMA,85719.0,CHARTER,46,0.98
235,ROBINS ELEMENTARY SCHOOL,TUCSON,PIMA,85745.0,PUBLIC,46,0.91
236,SAINT JOHN VIANNEY CATHOLIC SCHOOL,GOODYEAR,MARICOPA,,PRIVATE,46,0.96
237,SAINTS SIMON AND JUDE SCHOOL,PHOENIX,MARICOPA,85017.0,PRIVATE,46,0.94
238,SARAH MARLEY SCHOOL,DOUGLAS,COCHISE,85607.0,PUBLIC,46,1.0
239,BELLA VISTA ELEMENTARY SCHOOL,SIERRA VISTA,COCHISE,85635.0,PUBLIC,47,1.0
240,DESERT SHADOWS MIDDLE SCHOOL,NOGALES,SANTA CRUZ,85621.0,PUBLIC,47,0.96
241,ESTRELLA MOUNTAIN ELEMENTARY SCHOOL,GOODYEAR,MARICOPA,85338.0,PUBLIC,47,0.94
242,GILA CROSSING COMMUNITY SCHOOL,LAVEEN,MARICOPA,85339.0,PUBLIC,47,1.0
243,HENRY HANK OYAMA,TUCSON,PIMA,85713.0,PUBLIC,47,1.0
244,MARTIN LUTHER KING JR ELEMENTARY SCHOOL,PHOENIX,MARICOPA,,CHARTER,47,0.96
245,MYERS-GANOUNG ELEMENTARY SCHOOL,TUCSON,PIMA,85711.0,PUBLIC,47,0.98
246,PATHFINDER ACADEMY AT EASTMARK,MESA,MARICOPA,85212.0,CHARTER,47,0.87
247,ROADRUNNER ELEMENTARY SCHOOL,MARANA,PIMA,85653.0,PUBLIC,47,0.94
248,ROBERT BRACKER ELEMENTARY,NOGALES,SANTA CRUZ,85621.0,PUBLIC,47,0.96
249,SAINT VINCENT DE PAUL CATHOLIC SCHOOL,PHOENIX,MARICOPA,85031.0,PRIVATE,47,0.89
250,SANDERS ELEMENTARY SCHOOL,SANDERS,APACHE,86512.0,PUBLIC,47,1.0
251,SOUTHGATE ACADEMY,TUCSON,PIMA,85706.0,CHARTER,47,0.96
252,VALLEY VIEW SCHOOL,PHOENIX,MARICOPA,85041.0,PUBLIC,47,0.98
253,VAN BUSKIRK ELEMENTARY SCHOOL,TUCSON,PIMA,85714.0,PUBLIC,47,1.0
254,ACCLAIM ACADEMY,PHOENIX,MARICOPA,85033.0,CHARTER,48,0.98
255,ARROYO SCHOOL,GLENDALE,MARICOPA,85304.0,PUBLIC,48,0.92
256,BELLAIR ELEMENTARY SCHOOL,GLENDALE,MARICOPA,85308.0,PUBLIC,48,0.94
257,CARMICHAEL ELEMENTARY SCHOOL,SIERRA VISTA,COCHISE,85635.0,PUBLIC,48,0.96
258,COPPER CREEK ELEMENTARY SCHOOL,TUCSON,PIMA,85737.0,PUBLIC,48,1.0
259,CORONADO K-8 SCHOOL,TUCSON,PIMA,85739.0,PUBLIC,48,0.92
260,LAGUNA ELEMENTARY SCHOOL,TUCSON,PIMA,85705.0,PUBLIC,48,1.0
261,MESA VIEW ELEMENTARY,CHINLE,APACHE,86503.0,PUBLIC,48,1.0
262,MOUNTAIN VIEW PREPARATORY,COTTONWOOD,YAVAPAI,86326.0,PUBLIC,48,0.88
263,MOUNTAIN VISTA SCHOOL,ORACLE,PINAL,85623.0,PRIVATE,48,1.0
264,PERALTA TRAIL ELEMENTARY SCHOOL,GOLD CANYON,PINAL,85118.0,PUBLIC,48,0.94
265,SAINT THOMAS AQUINAS GRADE SCHOOL,AVONDALE,MARICOPA,85392.0,PRIVATE,48,0.9
266,SEQUOIA CHOICE SCHOOL ARIZONA DISTANCE LEARNING SCHOOL,MESA,MARICOPA,85203.0,CHARTER,48,0.5
267,SOLENG TOM ELEMENTARY SCHOOL,TUCSON,PIMA,85748.0,PUBLIC,48,0.98
268,SWEETWATER SCHOOL,GLENDALE,MARICOPA,85304.0,PUBLIC,48,0.98
269,VILLAGE MEADOWS ELEMENTARY SCHOOL,SIERRA VISTA,COCHISE,85635.0,PUBLIC,48,1.0
270,YUMA LUTHERAN SCHOOL,YUMA,YUMA,85365.0,PRIVATE,48,0.94
271,YOUNG SCHOLARS ACADEMY,BULLHEAD CITY,MOHAVE,86426.0,CHARTER,48,0.96
272,A J MITCHELL ELEMENTARY SCHOOL,NOGALES,SANTA CRUZ,85621.0,PUBLIC,49,0.98
273,ABRAHAM LINCOLN TRADITIONAL SCHOOL,PHOENIX,MARICOPA,85051.0,PUBLIC,49,0.92
274,ACADEMY OF MATH AND SCIENCE,TUCSON,PIMA,85705.0,CHARTER,49,1.0
275,BRIGHT BEGINNINGS SCHOOL #1,CHANDLER,MARICOPA,85224.0,CHARTER,49,0.94
276,BURK ELEMENTARY SCHOOL,GILBERT,MARICOPA,85234.0,PUBLIC,49,1.0
277,DESERT PALMS ELEMENTARY SCHOOL,GLENDALE,MARICOPA,85304.0,PUBLIC,49,0.9
278,DISCOVERY SCHOOL,GLENDALE,MARICOPA,85303.0,PUBLIC,49,0.98
279,ED & VERMA PASTOR ELEMENTARY SCHOOL,PHOENIX,MARICOPA,85041.0,PUBLIC,49,0.96
280,HASSAYAMPA ELEMENTARY SCHOOL,WICKENBURG,MARICOPA,85390.0,PUBLIC,49,0.82
281,ISAAC E IMES SCHOOL,GLENDALE,MARICOPA,85301.0,PUBLIC,49,1.0
282,JACK L KUBAN ELEMENTARY SCHOOL,PHOENIX,MARICOPA,85009.0,PUBLIC,49,1.0
283,LARKSPUR ELEMENTARY SCHOOL,PHOENIX,MARICOPA,85032.0,PUBLIC,49,0.86
284,LAURA N. BANKS ELEMENTARY,TUCSON,PIMA,85735.0,PUBLIC,49,0.96
285,LOWELL SCHOOL,PHOENIX,MARICOPA,85003.0,PUBLIC,49,0.94
286,MARY MCLEOD BETHUNE SCHOOL,PHOENIX,MARICOPA,85007.0,PUBLIC,49,0.98
287,NADABURG ELEMENTARY SCHOOL,WITTMANN,MARICOPA,85361.0,PUBLIC,49,1.0
288,NAVAJO ELEMENTARY SCHOOL,SCOTTSDALE,MARICOPA,85257.0,PUBLIC,49,0.92
289,PARAGON SCIENCE ACADEMY,CHANDLER,MARICOPA,85224.0,CHARTER,49,0.9
290,PINON ELEMENTARY SCHOOL,PINON,NAVAJO,86510.0,PUBLIC,49,1.0
291,SELF DEVELOPMENT ACADEMY PHOENIX,PHOENIX,MARICOPA,,CHARTER,49,0.94
292,SKYLINE RANCH ELEMENTARY,QUEEN CREEK,PINAL,,PUBLIC,49,0.88
293,VALLEY HORIZON ELEMENTARY SCHOOL,YUMA,YUMA,85364.0,PUBLIC,49,1.0
294,ASANTE PREPARATORY ACADEMY,SURPRISE,MARICOPA,85387.0,PUBLIC,50,0.92
295,C J JORGENSEN SCHOOL,PHOENIX,MARICOPA,85041.0,PUBLIC,50,0.92
296,COMBS TRADITIONAL SCHOOL,SAN TAN VALLEY,PINAL,85240.0,PUBLIC,50,0.98
297,E C NASH SCHOOL,TUCSON,PIMA,,PUBLIC,50,0.94
298,EVERGREEN ELEMENTARY SCHOOL,CASA GRANDE,PINAL,85222.0,PUBLIC,50,1.0
299,GRAYHAWK ELEMENTARY SCHOOL,SCOTTSDALE,MARICOPA,85255.0,PUBLIC,50,0.9
300,INDIAN WELLS ELEMENTARY,INDIAN WELLS,NAVAJO,86031.0,PUBLIC,50,0.98
301,JAMAICA ELEMENTARY SCHOOL,LAKE HAVASU CITY,MOHAVE,86406.0,PUBLIC,50,0.96
302,MATH AND SCIENCE SUCCESS ACADEMY,TUCSON,PIMA,85756.0,CHARTER,50,0.98
303,MOUNTAIN VIEW ELEMENTARY SCHOOL,PRESCOTT VALLEY,YAVAPAI,86314.0,PUBLIC,50,0.98
304,PAINTED SKY ELEMENTARY SCHOOL,TUCSON,PIMA,85755.0,PUBLIC,50,0.98
305,PIONEER ELEMENTARY SCHOOL-85306,GLENDALE,MARICOPA,85306.0,PUBLIC,50,0.86
306,PUEBLO DEL SOL MIDDLE SCHOOL,PHOENIX,MARICOPA,85019.0,PUBLIC,50,1.0
307,SCOTTSDALE CHRISTIAN ACADEMY,,MARICOPA,,PRIVATE,50,0.84
308,SKY VIEW ELEMENTARY SCHOOL,PEORIA,MARICOPA,85381.0,PUBLIC,50,0.9
309,WARD TRADITIONAL ACADEMY,TEMPE,MARICOPA,85282.0,PUBLIC,50,0.92
310,YOUNG SCHOLARS ACADEMY,BULLHEAD CITY,MOHAVE,86426.0,CHARTER,50,0.96
311,SWEETWATER SCHOOL,GLENDALE,MARICOPA,85304.0,PUBLIC,50,0.94
312,THE BEREAN ACADEMY,SIERRA VISTA,COCHISE,85635.0,CHARTER,50,0.84
313,TOWN & COUNTRY ELEMENTARY SCHOOL,SIERRA VISTA,COCHISE,85635.0,PUBLIC,50,1.0
314,W V WHITMORE ELEMENTARY SCHOOL,TUCSON,PIMA,85712.0,PUBLIC,50,0.98
315,FRANKLIN PHONETIC PRIMARY SCHOOL,PRESCOTT VALLEY,YAVAPAI,86314.0,CHARTER,51,0.63
316,GILBERT CHRISTIAN ELEMENTARY & MIDDLE SCHOOL,GILBERT,MARICOPA,85296.0,PRIVATE,51,0.75
317,HOHOKAM ELEMENTARY SCHOOL,SCOTTSDALE,MARICOPA,85257.0,PUBLIC,51,1.0
318,IRENE LOPEZ SCHOOL,PHOENIX,MARICOPA,85040.0,PUBLIC,51,0.94
319,KATHRYN SUE SIMONTON ELEMENTARY,QUEEN CREEK,PINAL,85140.0,PUBLIC,51,0.86
320,MARION DONALDSON ELEMENTARY SCHOOL,TUCSON,PIMA,85704.0,PUBLIC,51,0.98
321,RICHARD B WILSON JR SCHOOL,TUCSON,PIMA,85742.0,PUBLIC,51,0.98
322,SONORAN SCIENCE ACADEMY - TUCSON,TUCSON,PIMA,85741.0,CHARTER,51,0.92
323,VILLA DE PAZ ELEMENTARY SCHOOL,PHOENIX,MARICOPA,85037.0,PUBLIC,51,0.98
324,AMERICAN LEADERSHIP ACADEMY - MESA,MESA,MARICOPA,85212.0,CHARTER,52,0.87
325,BALES ELEMENTARY SCHOOL,BUCKEYE,MARICOPA,85326.0,PUBLIC,52,0.92
326,CLARKDALE-JEROME ELEMENTARY SCHOOL,CLARKDALE,YAVAPAI,86324.0,PUBLIC,52,0.87
327,DAVIS BILINGUAL MAGNET SCHOOL,TUCSON,PIMA,85701.0,PUBLIC,52,0.96
328,FRANCES OWEN HOLAWAY ELEMENTARY SCHOOL,TUCSON,PIMA,85719.0,PUBLIC,52,1.0
329,JOHN Q THOMAS ELEMENTARY SCHOOL,FLAGSTAFF,COCONINO,86004.0,PUBLIC,52,0.94
330,LAGUNA ELEMENTARY SCHOOL,SCOTTSDALE,MARICOPA,85258.0,PUBLIC,52,0.92
331,LONGFELLOW ELEMENTARY SCHOOL,MESA,MARICOPA,85204.0,PUBLIC,52,1.0
332,ROBLES ELEMENTARY SCHOOL,TUCSON,PIMA,85736.0,PUBLIC,52,0.94
333,ROSKRUGE BILINGUAL K-8 SCHOOL,TUCSON,PIMA,,PUBLIC,52,0.98
334,SAN MARCOS ELEMENTARY SCHOOL,CHANDLER,MARICOPA,85225.0,PUBLIC,52,1.0
335,T G BARR SCHOOL,PHOENIX,MARICOPA,85042.0,PUBLIC,52,1.0
336,VILLA DE PAZ ELEMENTARY SCHOOL,PHOENIX,MARICOPA,85037.0,PUBLIC,52,0.98
337,TONALEA ELEMENTARY SCHOOL,SCOTTSDALE,MARICOPA,85257.0,PRIVATE,52,0.94
338,AMERICAN LEADERSHIP ACADEMY- GILBERT SOUTH K-6 CAMPUS,GILBERT,MARICOPA,85298.0,CHARTER,53,0.87
339,BEAVER CREEK SCHOOL,RIMROCK,YAVAPAI,86335.0,PUBLIC,53,0.89
340,CHALLENGER ELEMENTARY SCHOOL,NOGALES,SANTA CRUZ,85621.0,PUBLIC,53,1.0
341,CRADLEBOARD SCHOOL,WHITERIVER,NAVAJO,85941.0,PUBLIC,53,1.0
342,DEGRAZIA ELEMENTARY SCHOOL,TUCSON,PIMA,85742.0,PUBLIC,53,0.96
343,KENILWORTH ELEMENTARY SCHOOL,PHOENIX,MARICOPA,85003.0,PUBLIC,53,1.0
344,MARY L WELTY ELEMENTARY SCHOOL,NOGALES,SANTA CRUZ,85621.0,PUBLIC,53,0.98
345,SAINT JOHN XXIII CATHOLIC SCHOOL,SCOTTSDALE,MARICOPA,85254.0,PRIVATE,53,0.93
346,SAINT THOMAS THE APOSTLE CATHOLIC SCHOOL,PHOENIX,MARICOPA,85016.0,PRIVATE,53,0.94
347,SANDRA DAY O'CONNOR ELEMENTARY SCHOOL,MESA,MARICOPA,85205.0,PUBLIC,53,0.94
348,BORTON PRIMARY MAGNET SCHOOL,TUCSON,PIMA,85713.0,PUBLIC,54,0.93
349,BRUNSON-LEE ELEMENTARY SCHOOL,PHOENIX,MARICOPA,85008.0,PUBLIC,54,0.96
350,KINSEY INQUIRY AND DISCOVERY SCHOOL,FLAGSTAFF,COCONINO,86001.0,PUBLIC,54,0.91
351,NAYLOR MIDDLE SCHOOL,TUCSON,PIMA,85711.0,PUBLIC,54,0.94
352,NEW VISTAS ACADEMY,CHANDLER,MARICOPA,85225.0,PRIVATE,54,0.94
353,PIMA BUTTE ELEMENTARY SCHOOL,MARICOPA,PINAL,85239.0,PUBLIC,54,1.0
354,RED MOUNTAIN RANCH ELEMENTARY,MESA,MARICOPA,85215.0,PUBLIC,54,0.96
355,WASHINGTON ELEMENTARY SCHOOL-85202,MESA,MARICOPA,85202.0,PUBLIC,54,0.96
356,WILLIAM R SULLIVAN ELEMENTARY SCHOOL,PHOENIX,MARICOPA,85009.0,PUBLIC,54,0.98
357,BERNARD BLACK ELEMENTARY,PHOENIX,MARICOPA,85041.0,PUBLIC,55,1.0
358,CAMELBACK ACADEMY,GLENDALE,MARICOPA,85303.0,CHARTER,55,0.98
359,CARRILLO INTERMEDIATE MAGNET SCHOOL,TUCSON,PIMA,85701.0,PUBLIC,55,0.98
360,CHAMPION SCHOOLS SAN TAN VALLEY,SAN TAN VALLEY,PINAL,85143.0,CHARTER,55,0.64
361,CLOVES C CAMPBELL SR ELEMENTARY SCHOOL,PHOENIX,MARICOPA,85042.0,PUBLIC,55,0.93
362,MILESTONES CHARTER SCHOOL,PHOENIX,MARICOPA,85032.0,CHARTER,55,0.98
363,PEDRO GUERRERO ELEMENTARY,MESA,MARICOPA,85210.0,PUBLIC,55,0.98
364,PIONEER PREPARATORY - A CHALLENGE FOUNDATION,PHOENIX,MARICOPA,85033.0,CHARTER,55,1.0
365,ROBERT RICHARDSON ELEMENTARY SCHOOL,TUCSON,PIMA,85741.0,PUBLIC,55,0.96
366,SONORAN SCIENCE ACADEMY EAST,TUCSON,PIMA,85730.0,CHARTER,55,1.0
367,SUMMIT VIEW ELEMENTARY,TUCSON,PIMA,85756.0,PUBLIC,55,1.0
368,WHITTIER ELEMENTARY SCHOOL-85006,PHOENIX,MARICOPA,85006.0,PUBLIC,55,1.0
369,SUNSET RIDGE ELEMENTARY-85086,PHOENIX,MARICOPA,85086.0,PUBLIC,55,0.98
370,TOLSON ELEMENTARY SCHOOL,TUCSON,PIMA,85745.0,PUBLIC,55,1.0
371,WEST POINT ELEMENTARY,SURPRISE,MARICOPA,85374.0,PUBLIC,55,0.95
372,WINIFRED HARELSON ELEMENTARY SCHOOL,TUCSON,PIMA,85704.0,PUBLIC,55,0.96
373,ACADEMY OF MATHEMATICS AND SCIENCE SOUTH,PHOENIX,MARICOPA,85017.0,CHARTER,56,0.82
374,AUGUSTUS H SHAW JR SCHOOL,PHOENIX,MARICOPA,85034.0,PUBLIC,56,0.96
375,BLACK MOUNTAIN ELEMENTARY SCHOOL,CAVE CREEK,MARICOPA,85327.0,PUBLIC,56,0.84
376,CHALLENGER BASIC SCHOOL,GILBERT,MARICOPA,85234.0,CHARTER,56,0.77
377,COTTONWOOD ELEMENTARY SCHOOL,CASA GRANDE,PINAL,85122.0,PUBLIC,56,0.95
378,IMAGINE CHARTER SCHOOL AT BELL CANYON,PHOENIX,MARICOPA,85053.0,CHARTER,56,0.91
379,TRES RIOS ELEMENTARY SCHOOL,TOLLESON,MARICOPA,85353.0,PUBLIC,56,0.98
380,WILLIAM T MACHAN ELEMENTARY SCHOOL,PHOENIX,MARICOPA,85006.0,PUBLIC,56,0.95
381,BLACK MOUNTAIN ELEMENTARY SCHOOL,GOLDEN VALLEY,MOHAVE,86413.0,PUBLIC,57,0.98
382,CENTERRA MIRAGE ELEMENTARY,GOODYEAR,MARICOPA,85338.0,PUBLIC,57,0.93
383,CHEYENNE ELEMENTARY SCHOOL,PEORIA,MARICOPA,85345.0,PUBLIC,57,0.88
384,CLAWSON SCHOOL,DOUGLAS,COCHISE,85607.0,PUBLIC,57,0.98
385,CRAGIN ELEMENTARY SCHOOL,TUCSON,PIMA,85716.0,PUBLIC,57,0.97
386,MOUNTAIN SHADOWS ELEMENTARY SCHOOL,GLENDALE,MARICOPA,85308.0,PUBLIC,57,0.9
387,MOUNTAIN VIEW ELEMENTARY,RIO RICO,SANTA CRUZ,85648.0,PUBLIC,57,1.0
388,SAM HUGHES ELEMENTARY SCHOOL,TUCSON,PIMA,85719.0,PUBLIC,57,1.0
389,SAN CAYETANO ELEMENTARY SCHOOL,RIO RICO,SANTA CRUZ,85648.0,PUBLIC,57,1.0
390,SILVESTRE S HERRERA SCHOOL,PHOENIX,MARICOPA,85034.0,PUBLIC,57,0.97
391,SIRRINE ELEMENTARY SCHOOL,CHANDLER,MARICOPA,85225.0,PUBLIC,57,0.97
392,STANFIELD ELEMENTARY SCHOOL,STANFIELD,PINAL,85172.0,PUBLIC,57,0.98
393,TSAILE ELEMENTARY SCHOOL,TSAILE,APACHE,86556.0,PUBLIC,57,1.0
394,WESTAR ELEMENTARY SCHOOL,GOODYEAR,MARICOPA,85338.0,PUBLIC,57,0.95
395,TAFT ELEMENTARY SCHOOL,MESA,MARICOPA,85207.0,PUBLIC,57,0.98
396,VALLEY VIEW SCHOOL,PHOENIX,MARICOPA,85041.0,PUBLIC,57,1.0
397,W F KILLIP ELEMENTARY SCHOOL,FLAGSTAFF,COCONINO,86004.0,PUBLIC,57,1.0
398,WHITERIVER ELEMENTARY,WHITERIVER,NAVAJO,85941.0,PUBLIC,57,0.98
399,ASHTON RANCH ELEMENTARY SCHOOL,SURPRISE,MARICOPA,85379.0,PUBLIC,58,0.98
400,BASIS - FLAGSTAFF,FLAGSTAFF,COCONINO,86001.0,CHARTER,58,0.86
401,HELEN KEELING ELEMENTARY SCHOOL,TUCSON,PIMA,85705.0,PUBLIC,58,0.98
402,HOLLINGER ELEMENTARY SCHOOL,TUCSON,PIMA,85713.0,PUBLIC,58,1.0
403,HOUSTON ELEMENTARY SCHOOL,GILBERT,MARICOPA,85234.0,PUBLIC,58,0.93
404,LAKEVIEW ELEMENTARY SCHOOL,PHOENIX,MARICOPA,85029.0,PUBLIC,58,0.95
405,RAINBOW VALLEY ELEMENTARY SCHOOL,BUCKEYE,MARICOPA,85326.0,PUBLIC,58,0.93
406,RIVERA ELEMENTARY,TUCSON,PIMA,85706.0,PUBLIC,58,0.98
407,TUBA CITY ELEMENTARY SCHOOL,TUBA CITY,COCONINO,86045.0,PUBLIC,58,0.95
408,VAN BUSKIRK ELEMENTARY SCHOOL,TUCSON,PIMA,85714.0,PUBLIC,58,0.95
409,W V WHITMORE ELEMENTARY SCHOOL,TUCSON,PIMA,85712.0,PUBLIC,58,0.98
410,WHEELER ELEMENTARY SCHOOL,TUCSON,PIMA,85710.0,PUBLIC,58,1.0
411,CAPITOL ELEMENTARY SCHOOL,PHOENIX,MARICOPA,85007.0,PUBLIC,59,1.0
412,CORONADO ELEMENTARY SCHOOL,SAINT JOHNS,APACHE,85936.0,PUBLIC,59,0.88
413,DESERT SPRINGS PREPARATORY ELEMENTARY SCHOOL,SCOTTSDALE,MARICOPA,85254.0,PUBLIC,59,0.97
414,GLENN F BURTON SCHOOL,GLENDALE,MARICOPA,85301.0,PUBLIC,59,0.98
415,JEFFERSON ELEMENTARY SCHOOL,MESA,MARICOPA,85208.0,PUBLIC,59,0.97
416,KYRENE DE LOS NINOS SCHOOL,TEMPE,MARICOPA,85283.0,PUBLIC,59,0.81
417,LEHI ELEMENTARY SCHOOL,MESA,MARICOPA,85203.0,PUBLIC,59,0.95
418,LYNN URQUIDES ELEMENTARY SCHOOL,TUCSON,PIMA,85713.0,PUBLIC,59,0.98
419,ORANGE GROVE ELEMENTARY SCHOOL,SOMERTON,YUMA,85350.0,PUBLIC,59,1.0
420,RIO VISTA ELEMENTARY SCHOOL,TUCSON,PIMA,85719.0,PUBLIC,59,0.95
421,STEVENSON ELEMENTARY SCHOOL,DOUGLAS,COCHISE,85607.0,PUBLIC,59,0.98
422,TONALEA ELEMENTARY SCHOOL,SCOTTSDALE,MARICOPA,85257.0,PRIVATE,59,0.85
423,WILLCOX ELEMENTARY SCHOOL,WILLCOX,COCHISE,85643.0,PUBLIC,59,0.95
424,DRACHMAN PRIMARY MAGNET SCHOOL,TUCSON,PIMA,85701.0,PUBLIC,60,0.98
425,FLORENCE K-8,FLORENCE,PINAL,85232.0,PUBLIC,60,0.9
426,HIDDEN HILLS ELEMENTARY SCHOOL,PHOENIX,MARICOPA,85022.0,PUBLIC,60,0.98
427,LAS BRISAS ACADEMY,GOODYEAR,MARICOPA,85338.0,PUBLIC,60,0.97
428,MAIE BARTLETT HEARD SCHOOL,PHOENIX,MARICOPA,85015.0,PUBLIC,60,0.95
429,MESA VERDE ELEMENTARY SCHOOL,TUCSON,PIMA,85704.0,PUBLIC,60,1.0
430,NAVARRETE ELEMENTARY,CHANDLER,MARICOPA,85249.0,PUBLIC,60,0.95
431,PINNACLE PEAK ELEMENTARY,SCOTTSDALE,MARICOPA,85255.0,PUBLIC,60,0.95
432,PORTER ELEMENTARY SCHOOL,MESA,MARICOPA,85204.0,PUBLIC,60,0.93
433,VILLA MONTESSORI SCHOOL - MEADOWBROOK,PHOENIX,MARICOPA,85016.0,PRIVATE,60,0.78
434,CALIBRE ACADEMY SURPRISE,SURPRISE,MARICOPA,85379.0,CHARTER,61,0.93
435,CANYON BREEZE ELEMENTARY,AVONDALE,MARICOPA,85392.0,PUBLIC,61,0.97
436,CHAMPION CHANDLER,CHANDLER,MARICOPA,85225.0,CHARTER,61,0.84
437,DESERT SUN ELEMENTARY SCHOOL,SCOTTSDALE,MARICOPA,85266.0,PUBLIC,61,0.85
438,DESERT VALLEY ELEMENTARY SCHOOL,GLENDALE,MARICOPA,85304.0,PUBLIC,61,0.97
439,GILBERT CHRISTIAN SCHOOLS - GREENFIELD,GILBERT,MARICOPA,85297.0,PRIVATE,61,0.84
440,KYRENE DE LA SIERRA SCHOOL,PHOENIX,MARICOPA,85048.0,PUBLIC,61,0.98
441,VILLA MONTESSORI - MAIN CAMPUS WA,PHOENIX,MARICOPA,,CHARTER,61,0.82
442,VALLEY HORIZON ELEMENTARY SCHOOL,YUMA,YUMA,85364.0,PUBLIC,61,1.0
443,ANTHEM PREPARATORY ACADEMY,ANTHEM,MARICOPA,85086.0,CHARTER,62,0.89
444,CANYON VIEW ELEMENTARY SCHOOL,TUCSON,PIMA,85750.0,PUBLIC,62,0.98
445,COPPER RIDGE ELEMENTARY SCHOOL,CORONA DE TUCSON,PIMA,85641.0,PUBLIC,62,0.97
446,DR DANIEL BRIGHT ELEMENTARY SCHOOL,COTTONWOOD,YAVAPAI,86326.0,PUBLIC,62,0.84
447,HEARN ACADEMY,PHOENIX,MARICOPA,85023.0,CHARTER,62,0.9
448,IRONWOOD ELEMENTARY SCHOOL,TUCSON,PIMA,85742.0,PUBLIC,62,0.92
449,KYRENE DE LA ESTRELLA ELEMENTARY SCHOOL,PHOENIX,MARICOPA,85048.0,PUBLIC,62,0.89
450,MANZO ELEMENTARY SCHOOL,TUCSON,PIMA,85745.0,PUBLIC,62,0.98
451,RONALD REAGAN FUNDAMENTAL SCHOOL,YUMA,YUMA,85364.0,PUBLIC,62,1.0
452,SANTA ROSA ELEMENTARY SCHOOL,MARICOPA,PINAL,85239.0,PUBLIC,62,0.97
453,SOUTHWEST ELEMENTARY SCHOOL,PHOENIX,MARICOPA,85041.0,PUBLIC,62,0.97
454,SUNSET CANYON SCHOOL,PHOENIX,MARICOPA,85050.0,PUBLIC,62,0.87
455,SUNSET RIDGE ELEMENTARY-85305,GLENDALE,MARICOPA,85305.0,PUBLIC,62,0.98
456,TSAILE ELEMENTARY SCHOOL,TSAILE,APACHE,86556.0,PUBLIC,62,1.0
457,ANASAZI ELEMENTARY,SCOTTSDALE,MARICOPA,85259.0,PUBLIC,63,0.86
458,DESERT MOUNTAIN SCHOOL,PHOENIX,MARICOPA,85086.0,PUBLIC,63,0.89
459,FOOTHILLS ELEMENTARY SCHOOL-85306,GLENDALE,MARICOPA,85306.0,PUBLIC,63,0.91
460,HAROLD STEELE ELEMENTARY SCHOOL,TUCSON,PIMA,85710.0,PUBLIC,63,0.97
461,LUKE ELEMENTARY SCHOOL,GLENDALE,MARICOPA,85307.0,PUBLIC,63,1.0
462,PEORIA ELEMENTARY SCHOOL,PEORIA,MARICOPA,85345.0,PUBLIC,63,0.68
463,RANCH ELEMENTARY SCHOOL,QUEEN CREEK,PINAL,85140.0,PUBLIC,63,0.97
464,SELF DEVELOPMENT CHARTER SCHOOL,MESA,MARICOPA,85205.0,CHARTER,63,0.87
465,SONOMA RANCH ELEMENTARY SCHOOL,GILBERT,MARICOPA,85233.0,PUBLIC,63,0.95
466,VALLE DEL ENCANTO LEARNING CENTER,SOMERTON,YUMA,85350.0,PUBLIC,63,0.98
467,WESTPARK ELEMENTARY SCHOOL,BUCKEYE,MARICOPA,85326.0,PUBLIC,63,0.98
468,WILLIAM R SULLIVAN ELEMENTARY SCHOOL,PHOENIX,MARICOPA,85009.0,PUBLIC,63,0.98
469,WHISPERING WIND ACADEMY,PHOENIX,MARICOPA,85032.0,PUBLIC,63,0.97
470,CHAMPION SCHOOLS,PHOENIX,MARICOPA,85042.0,CHARTER,64,0.94
471,COYOTE RIDGE,GLENDALE,MARICOPA,85303.0,PUBLIC,64,0.95
472,DIAMOND CANYON ELEMENTARY,PHOENIX,MARICOPA,85086.0,PUBLIC,64,0.92
473,IRVING ELEMENTARY SCHOOL,MESA,MARICOPA,85204.0,PUBLIC,64,0.89
474,JOE CARLSON ELEMENTARY SCHOOL,DOUGLAS,COCHISE,85607.0,PUBLIC,64,0.98
475,LAIRD ELEMENTARY SCHOOL,TEMPE,MARICOPA,85281.0,PUBLIC,64,0.97
476,SUNDANCE ELEMENTARY SCHOOL-85345,PEORIA,MARICOPA,85345.0,PUBLIC,64,0.88
477,VISTA COLLEGE PREPARATORY,PHOENIX,MARICOPA,85003.0,CHARTER,64,0.97
478,W F KILLIP ELEMENTARY SCHOOL,FLAGSTAFF,COCONINO,86004.0,PUBLIC,64,0.98
479,WINTERS WELL ELEMENTARY SCHOOL,TONOPAH,MARICOPA,,PUBLIC,64,0.94
480,ARIZONA DESERT ELEMENTARY SCHOOL,TOLLESON,MARICOPA,85353.0,PUBLIC,65,0.99
481,BASIS PRESCOTT,PRESCOTT,YAVAPAI,86301.0,PUBLIC,65,0.75
482,BENJAMIN FRANKLIN CHARTER SCHOOL - POWER RD,GILBERT,MARICOPA,85298.0,CHARTER,65,0.83
483,BONILLAS ELEMENTARY BASIC CURRICULUM MAGN,TUCSON,PIMA,85711.0,PUBLIC,65,0.99
484,COPPERWOOD SCHOOL,GLENDALE,MARICOPA,85304.0,PUBLIC,65,0.91
485,DESERT STAR SCHOOL,GOODYEAR,MARICOPA,85338.0,PUBLIC,65,0.99
486,FRANKLIN AT ALMA ELEMENTARY,MESA,MARICOPA,85202.0,PUBLIC,65,0.95
487,FREEDOM ELEMENTARY SCHOOL,BUCKEYE,MARICOPA,85326.0,PUBLIC,65,0.99
488,GARFIELD SCHOOL,PHOENIX,MARICOPA,85006.0,PUBLIC,65,0.97
489,HARRIS ELEMENTARY SCHOOL,MESA,MARICOPA,85204.0,PUBLIC,65,0.91
490,IRONWOOD SCHOOL,CASA GRANDE,PINAL,85122.0,PUBLIC,65,1.0
491,JOHN JACOBS ELEMENTARY SCHOOL,PHOENIX,MARICOPA,85023.0,PUBLIC,65,1.0
492,MADISON ELEMENTARY SCHOOL,MESA,MARICOPA,85206.0,PUBLIC,65,0.91
493,PALO VERDE SCHOOL,CASA GRANDE,PINAL,85122.0,PUBLIC,65,1.0
494,SAHUARO SCHOOL,PHOENIX,MARICOPA,85029.0,PUBLIC,65,0.99
495,SEQUOYA ELEMENTARY SCHOOL,SCOTTSDALE,MARICOPA,85254.0,PUBLIC,65,0.85
496,STURGEON CROMER ELEMENTARY SCHOOL,FLAGSTAFF,COCONINO,86004.0,PUBLIC,65,0.97
497,WHITTIER ELEMENTARY SCHOOL-85201,MESA,MARICOPA,85201.0,PUBLIC,65,0.99
498,WILDFIRE ELEMENTARY,PHOENIX,MARICOPA,85050.0,PUBLIC,65,0.91
499,BASIS - MESA,MESA,MARICOPA,85212.0,CHARTER,66,0.89
500,BENCHMARK SCHOOL,PHOENIX,MARICOPA,85032.0,CHARTER,66,0.55
501,CASA BLANCA COMMUNITY SCHOOL,BAPCHULE,PINAL,85121.0,PUBLIC,66,1.0
502,DESERT VIEW ELEMENTARY SCHOOL,PHOENIX,MARICOPA,85020.0,PUBLIC,66,0.92
503,DOBSON ACADEMY A-BALL CHARTER SCHOOL,CHANDLER,MARICOPA,85224.0,CHARTER,66,0.83
504,DOROTHY HALL ELEMENTARY,YUMA,YUMA,85365.0,PUBLIC,66,1.0
505,MARJORIE W ESTES ELEMENTARY SCHOOL,MARANA,PIMA,85658.0,PUBLIC,66,1.0
506,MOHAVE ACCELERATED ELEMENTARY SCHOOL,BULLHEAD CITY,MOHAVE,,CHARTER,66,0.91
507,MOYA ELEMENTARY,PHOENIX,MARICOPA,85009.0,PUBLIC,66,0.94
508,OAK TREE ELEMENTARY,GILBERT,MARICOPA,85233.0,PUBLIC,66,0.97
509,SUNSET RIDGE ELEMENTARY-85305,GLENDALE,MARICOPA,85305.0,PUBLIC,66,0.96
510,TUBA CITY ELEMENTARY SCHOOL,TUBA CITY,COCONINO,86045.0,PUBLIC,66,0.94
511,VISTA COLLEGE PREPARATORY,PHOENIX,MARICOPA,85003.0,CHARTER,66,0.94
512,CAROL RAE RANCH ELEMENTARY,GILBERT,MARICOPA,85234.0,PUBLIC,67,0.93
513,CHARLES W SECHRIST ELEMENTARY SCHOOL,FLAGSTAFF,COCONINO,86001.0,PUBLIC,67,0.91
514,EXCELENCIA SCHOOL,PHOENIX,MARICOPA,85006.0,PUBLIC,67,0.97
515,KYRENE DE LA COLINA SCHOOL,PHOENIX,MARICOPA,85044.0,PUBLIC,67,0.9
516,KYRENE DE LOS CERRITOS SCHOOL,PHOENIX,MARICOPA,85048.0,PUBLIC,67,0.97
517,MARSHALL HUMPHREY II ELEMENTARY SCHOOL,CHANDLER,MARICOPA,85225.0,PUBLIC,67,0.96
518,THOMAS A EDISON SCHOOL,PHOENIX,MARICOPA,85006.0,PUBLIC,67,0.97
519,WHITERIVER ELEMENTARY,WHITERIVER,NAVAJO,85941.0,PUBLIC,67,1.0
520,VAL VISTA LAKES ELEMENTARY SCHOOL,GILBERT,MARICOPA,85234.0,PUBLIC,67,0.85
521,WASHINGTON ELEMENTARY SCHOOL-85202,MESA,MARICOPA,85202.0,PUBLIC,67,0.93
522,WESTAR ELEMENTARY SCHOOL,GOODYEAR,MARICOPA,85338.0,PUBLIC,67,0.93
523,AGUA CALIENTE SCHOOL,TUCSON,PIMA,85749.0,PUBLIC,68,0.97
524,APACHE ELEMENTARY SCHOOL,PEORIA,MARICOPA,85382.0,PUBLIC,68,0.96
525,CONTINENTAL ELEMENTARY SCHOOL,GREEN VALLEY,PIMA,85614.0,PUBLIC,68,0.99
526,COPPER BASIN K-8,QUEEN CREEK,PINAL,85143.0,PUBLIC,68,0.84
527,COTTONWOOD COMMUNITY SCHOOL,COTTONWOOD,YAVAPAI,86326.0,PUBLIC,68,0.87
528,DESERT VISTA ELEMENTARY SCHOOL,APACHE JUNCTION,PINAL,85119.0,PUBLIC,68,0.96
529,ESMOND STATION SCHOOL,TUCSON,PIMA,85747.0,PUBLIC,68,0.97
530,GALVESTON ELEMENTARY SCHOOL,CHANDLER,MARICOPA,85225.0,PUBLIC,68,1.0
531,HALE ELEMENTARY SCHOOL,MESA,MARICOPA,85213.0,PUBLIC,68,0.94
532,KINGSWOOD ELEMENTARY SCHOOL,SURPRISE,MARICOPA,85374.0,PUBLIC,68,0.87
533,LAKE VALLEY ELEMENTARY SCHOOL,PRESCOTT VALLEY,YAVAPAI,86314.0,PUBLIC,68,0.9
534,LINDBERGH ELEMENTARY SCHOOL,MESA,MARICOPA,85204.0,PUBLIC,68,1.0
535,LONE MOUNTAIN ELEMENTARY SCHOOL,CAVE CREEK,MARICOPA,85331.0,PUBLIC,68,0.91
536,RATTLESNAKE RIDGE ELEMENTARY,TUCSON,PIMA,85743.0,PUBLIC,68,0.96
537,SANTA CLARA ELEMENTARY SCHOOL,TUCSON,PIMA,85756.0,PUBLIC,68,1.0
538,CENTENNIAL ELEMENTARY SCHOOL,TUCSON,PIMA,85705.0,PUBLIC,69,0.96
539,DESERT SPIRIT,GLENDALE,MARICOPA,85303.0,PUBLIC,69,0.96
540,DESERT WILLOW ELEMENTARY SCHOOL,CASA GRANDE,PINAL,85122.0,PUBLIC,69,0.94
541,DR. CHARLES A. BEJARANO ELEMENTARY SCHOOL,MIAMI,GILA,85539.0,PUBLIC,69,0.8
542,FALCON HILL ELEMENTARY SCHOOL,MESA,MARICOPA,85207.0,PUBLIC,69,0.96
543,LITTLETON ELEMENTARY SCHOOL,CASHION,MARICOPA,85323.0,PUBLIC,69,0.99
544,RANCHO GABRIELA ELEMENTARY,SURPRISE,MARICOPA,85379.0,PUBLIC,69,0.96
545,SAGUARO ELEMENTARY SCHOOL,CASA GRANDE,PINAL,85122.0,PUBLIC,69,0.99
546,SMOKETREE ELEMENTARY SCHOOL,LAKE HAVASU CITY,MOHAVE,86403.0,PUBLIC,69,0.87
547,STARLINE ELEMENTARY SCHOOL,LAKE HAVASU CITY,MOHAVE,86406.0,PUBLIC,69,0.97
548,SUNLAND ELEMENTARY SCHOOL,PHOENIX,MARICOPA,85041.0,PUBLIC,69,1.0
549,WILDFLOWER ACCELERATED ACADEMY,GOODYEAR,MARICOPA,85338.0,PUBLIC,69,0.97
550,WESTPARK ELEMENTARY SCHOOL,BUCKEYE,MARICOPA,85326.0,PUBLIC,69,0.99
551,WILDFLOWER SCHOOL,GOODYEAR,MARICOPA,85338.0,PUBLIC,69,0.93
552,AMBERLEA ELEMENTARY SCHOOL,PHOENIX,MARICOPA,85037.0,PUBLIC,70,0.97
553,BLOOM ELEMENTARY SCHOOL,TUCSON,PIMA,85715.0,PUBLIC,70,1.0
554,GREENBRIER ELEMENTARY SCHOOL,GLENDALE,MARICOPA,85308.0,PUBLIC,70,0.87
555,HAROLD W SMITH SCHOOL,GLENDALE,MARICOPA,85301.0,PUBLIC,70,0.96
556,MESQUITE ELEMENTARY,YUMA,YUMA,85364.0,PUBLIC,70,1.0
557,NORTHWEST CHRISTIAN SCHOOL - MAIN CAMPUS,PHOENIX,MARICOPA,,PRIVATE,70,0.86
558,PAINTED DESERT MONTESSORI,BUCKEYE,MARICOPA,85326.0,CHARTER,70,0.76
559,RUDY G BOLOGNA ELEMENTARY,CHANDLER,MARICOPA,85225.0,PUBLIC,70,0.93
560,SUNRIDGE ELEMENTARY SCHOOL,PHOENIX,MARICOPA,85043.0,PUBLIC,70,1.0
561,WILLIAM T MACHAN ELEMENTARY SCHOOL,PHOENIX,MARICOPA,85006.0,PUBLIC,70,0.99
562,ACADEMY DEL SOL - HOPE,TUCSON,PIMA,85757.0,CHARTER,71,0.97
563,ACADEMY DEL SOL - HOPE,TUCSON,PIMA,85757.0,CHARTER,71,0.97
564,AKIMEL O'OTHAM PEE POSH,COOLIDGE,PINAL,85128.0,CHARTER,71,1.0
565,ARIZONA CITY ELEMENTARY SCHOOL,ARIZONA CITY,PINAL,,PUBLIC,71,0.87
566,BELEN SOTO ELEMENTARY SCHOOL,GOODYEAR,MARICOPA,85395.0,PUBLIC,71,0.99
567,COPPER CANYON ELEMENTARY SCHOOL,SCOTTSDALE,MARICOPA,85254.0,PUBLIC,71,0.96
568,DESERT COVE ELEMENTARY SCHOOL,PHOENIX,MARICOPA,85028.0,CHARTER,71,0.9
569,EISENHOWER ELEMENTARY SCHOOL,MESA,MARICOPA,85201.0,PUBLIC,71,0.99
570,HARRIET JOHNSON PRIMARY SCHOOL,TUCSON,PIMA,85757.0,PUBLIC,71,0.99
571,IRENE ERICKSON ELEMENTARY SCHOOL,TUCSON,PIMA,85730.0,PUBLIC,71,0.86
572,LEMAN ACADEMY OF EXCELLENCE - SIERRA VISTA,SIERRA VISTA,COCHISE,85635.0,CHARTER,71,0.96
573,LINCOLN ELEMENTARY SCHOOL,NOGALES,SANTA CRUZ,85621.0,PUBLIC,71,1.0
574,PICTURE ROCKS ELEMENTARY SCHOOL,TUCSON,PIMA,85743.0,PUBLIC,71,0.92
575,ROBSON ELEMENTARY SCHOOL,MESA,MARICOPA,85204.0,PUBLIC,71,0.97
576,ROVER ELEMENTARY SCHOOL,TEMPE,MARICOPA,85283.0,PUBLIC,71,0.93
577,SONORAN SKY ELEMENTARY SCHOOL-85307,GLENDALE,MARICOPA,85307.0,PUBLIC,71,0.9
578,SOUSA ELEMENTARY SCHOOL,MESA,MARICOPA,85207.0,PUBLIC,71,0.96
579,SOUTH PHOENIX PREP AND ARTS ACADEMY,PHOENIX,MARICOPA,85042.0,CHARTER,71,0.94
580,WINIFRED HARELSON ELEMENTARY SCHOOL,TUCSON,PIMA,85704.0,PUBLIC,71,1.0
581,SUNSET SCHOOL,GLENDALE,MARICOPA,85302.0,PUBLIC,71,0.94
582,WESTERN PEAKS ELEMENTARY,SURPRISE,MARICOPA,85388.0,PUBLIC,71,0.99
583,CHINLE ELEMENTARY SCHOOL,CHINLE,APACHE,86503.0,PUBLIC,72,1.0
584,GLENDALE LANDMARK MIDDLE SCHOOL,GLENDALE,MARICOPA,85301.0,PUBLIC,72,0.97
585,JOSEPH ZITO ELEMENTARY SCHOOL,PHOENIX,MARICOPA,85035.0,PUBLIC,72,0.97
586,LOMA LINDA ELEMENTARY SCHOOL,PHOENIX,MARICOPA,85016.0,PUBLIC,72,0.97
587,MISSION MANOR ELEMENTARY SCHOOL,TUCSON,PIMA,85706.0,PUBLIC,72,1.0
588,ROOSEVELT ELEMENTARY SCHOOL,MESA,MARICOPA,85202.0,PUBLIC,72,0.94
589,SHUMWAY ELEMENTARY SCHOOL,CHANDLER,MARICOPA,85225.0,PUBLIC,72,0.93
590,SUNRISE ELEMENTARY SCHOOL,PHOENIX,MARICOPA,85053.0,PUBLIC,72,0.96
591,TANQUE VERDE ELEMENTARY SCHOOL,TUCSON,PIMA,85749.0,PUBLIC,72,0.97
592,TUCSON COUNTRY DAY SCHOOL,TUCSON,PIMA,85715.0,CHARTER,72,0.97
593,TAYLOR HICKS SCHOOL,PRESCOTT,YAVAPAI,86301.0,PUBLIC,72,0.93
594,ACORN MONTESSORI CHARTER SCHOOL - WEST,PRESCOTT VALLEY,YAVAPAI,86314.0,CHARTER,73,0.66
595,AUDREY & ROBERT RYAN ELEMENTARY,CHANDLER,MARICOPA,85249.0,PUBLIC,73,0.92
596,CHANDLER TRADITIONAL ACADEMY - FREEDOM,GILBERT,MARICOPA,85298.0,PUBLIC,73,0.93
597,CIMARRON SPRINGS ELEMENTARY,SURPRISE,MARICOPA,85388.0,PUBLIC,73,0.95
598,COYOTE HILLS ELEMENTARY SCHOOL,PEORIA,MARICOPA,85382.0,PUBLIC,73,0.85
599,GLENN L DOWNS SCHOOL,PHOENIX,MARICOPA,85031.0,PUBLIC,73,0.97
600,HOMER DAVIS ELEMENTARY SCHOOL,TUCSON,PIMA,85705.0,PUBLIC,73,0.97
601,KYRENE DE LA PALOMA SCHOOL,CHANDLER,MARICOPA,85226.0,PUBLIC,73,0.96
602,MICHAEL ANDERSON SCHOOL,AVONDALE,MARICOPA,85323.0,PUBLIC,73,0.99
603,RIO VISTA ELEMENTARY,AVONDALE,MARICOPA,85392.0,PUBLIC,73,1.0
604,TOWN & COUNTRY ELEMENTARY SCHOOL,SIERRA VISTA,COCHISE,85635.0,PUBLIC,73,0.99
605,TUMBLEWEED ELEMENTARY SCHOOL,PHOENIX,MARICOPA,85029.0,PUBLIC,73,1.0
606,WALKER BUTTE K-8,QUEEN CREEK,PINAL,85143.0,PUBLIC,73,0.97
607,TAYLOR ELEMENTARY SCHOOL,TAYLOR,NAVAJO,85939.0,PUBLIC,73,0.9
608,THOMAS M KNOLES ELEMENTARY SCHOOL,FLAGSTAFF,COCONINO,86004.0,PUBLIC,73,0.95
609,TRES RIOS ELEMENTARY SCHOOL,TOLLESON,MARICOPA,85353.0,PUBLIC,73,1.0
610,TUCSON COUNTRY DAY SCHOOL,TUCSON,PIMA,85715.0,CHARTER,73,0.99
611,TUMBLEWEED ELEMENTARY SCHOOL,PHOENIX,MARICOPA,85029.0,PUBLIC,73,0.99
612,VILLAGE MEADOWS ELEMENTARY SCHOOL,PHOENIX,MARICOPA,85023.0,PUBLIC,73,0.92
613,ASU PREPARATORY ACADEMY - PHOENIX ELEMENTARY,PHOENIX,MARICOPA,85006.0,PUBLIC,74,0.96
614,ASU PREPARATORY ACADEMY - POLYTECHNIC ELEMENTARY SCHOOL,MESA,MARICOPA,85212.0,PUBLIC,74,0.95
615,CRISMON ELEMENTARY SCHOOL,MESA,MARICOPA,85210.0,PUBLIC,74,0.96
616,EAGLE RIDGE ELEMENTARY SCHOOL,PHOENIX,MARICOPA,85024.0,PUBLIC,74,0.92
617,EVA MARSHALL ELEMENTARY SCHOOL,FLAGSTAFF,COCONINO,86001.0,PUBLIC,74,0.97
618,FINE ARTS ACADEMY,TOLLESON,MARICOPA,85353.0,PUBLIC,74,0.95
619,GATEWAY SCHOOL,PHOENIX,MARICOPA,85008.0,PUBLIC,74,0.99
620,HAPPY VALLEY SCHOOL,PEORIA,MARICOPA,,CHARTER,74,0.85
621,IRONWOOD ELEMENTARY SCHOOL,PHOENIX,MARICOPA,85053.0,PUBLIC,74,1.0
622,JAMES B ROLLE SCHOOL,YUMA,YUMA,85365.0,PUBLIC,74,1.0
623,LARRY C KENNEDY SCHOOL,PHOENIX,MARICOPA,85016.0,PUBLIC,74,0.96
624,MESQUITE ELEMENTARY SCHOOL,CASA GRANDE,PINAL,85222.0,PUBLIC,74,0.99
625,MOUNTAIN VIEW SCHOOL,WADDELL,MARICOPA,85355.0,PUBLIC,74,0.93
626,O C JOHNSON SCHOOL,YUMA,YUMA,85364.0,PUBLIC,74,1.0
627,POWER RANCH ELEMENTARY,GILBERT,MARICOPA,85297.0,PUBLIC,74,0.89
628,REDBIRD ELEMENTARY SCHOOL,MESA,MARICOPA,85210.0,PUBLIC,74,0.96
629,RIO COLORADO ELEMENTARY SCHOOL,SAN LUIS,YUMA,85349.0,PUBLIC,74,1.0
630,SALK ELEMENTARY SCHOOL,MESA,MARICOPA,85207.0,PUBLIC,74,0.92
631,SANTA CRUZ ELEMENTARY,MARICOPA,PINAL,85239.0,PUBLIC,74,0.95
632,WALTER DOUGLAS ELEMENTARY SCHOOL,TUCSON,PIMA,85705.0,PUBLIC,74,0.99
633,WEST ELEMENTARY SCHOOL,COOLIDGE,PINAL,85128.0,PUBLIC,74,0.96
634,VENTANA VISTA ELEMENTARY SCHOOL,TUCSON,PIMA,85750.0,PUBLIC,74,0.88
635,ANTHEM K-8 SCHOOL,FLORENCE,PINAL,85232.0,PUBLIC,75,0.89
636,CANDEO SCHOOLS,PEORIA,MARICOPA,85383.0,CHARTER,75,0.85
637,DESERT SHADOWS ELEMENTARY SCHOOL,SCOTTSDALE,MARICOPA,85254.0,PUBLIC,75,0.88
638,DESERT WILLOW ELEMENTARY SCHOOL,KINGMAN,MOHAVE,86401.0,PUBLIC,75,0.96
639,GALE ELEMENTARY SCHOOL,TUCSON,PIMA,85710.0,PUBLIC,75,0.97
640,GRANVILLE ELEMENTARY,PRESCOTT VALLEY,YAVAPAI,86314.0,PUBLIC,75,0.95
641,JOHNSON ELEMENTARY SCHOOL,MESA,MARICOPA,85206.0,PUBLIC,75,0.97
642,KYRENE DE LAS MANITAS SCHOOL,TEMPE,MARICOPA,85284.0,PUBLIC,75,0.96
643,LIBERTY ELEMENTARY SCHOOL-85254,SCOTTSDALE,MARICOPA,85254.0,PUBLIC,75,0.91
644,LULU WALKER SCHOOL,TUCSON,PIMA,85704.0,PUBLIC,75,0.95
645,MADISON TRADITIONAL ACADEMY,PHOENIX,MARICOPA,85014.0,PUBLIC,75,0.95
646,MILLER ELEMENTARY SCHOOL,TUCSON,PIMA,85746.0,PUBLIC,75,0.99
647,OCOTILLO SCHOOL,PHOENIX,MARICOPA,85017.0,PUBLIC,75,0.97
648,QUARTZ HILL ELEMENTARY,GILBERT,MARICOPA,85297.0,PUBLIC,75,0.92
649,REDFIELD ELEMENTARY SCHOOL,SCOTTSDALE,MARICOPA,85260.0,PUBLIC,75,0.87
650,RUTH POWELL ELEMENTARY SCHOOL,SAFFORD,GRAHAM,85546.0,PUBLIC,75,0.93
651,TAFT ELEMENTARY SCHOOL,MESA,MARICOPA,85207.0,PUBLIC,75,0.96
652,VILLAGE MEADOWS ELEMENTARY SCHOOL,PHOENIX,MARICOPA,85023.0,PUBLIC,75,0.97
653,WESTERN VALLEY ELEMENTARY SCHOOL,PHOENIX,MARICOPA,85043.0,PUBLIC,75,0.95
654,WILLCOX ELEMENTARY SCHOOL,WILLCOX,COCHISE,85643.0,PUBLIC,75,0.99
655,BOULDER CREEK ELEMENTARY,MESA,MARICOPA,85212.0,PUBLIC,76,0.96
656,CARMINATI SCHOOL,TEMPE,MARICOPA,85282.0,PUBLIC,76,0.93
657,CARTWRIGHT ELEMENTARY SCHOOL,PHOENIX,MARICOPA,85031.0,PUBLIC,76,0.96
658,CHAPARRAL ELEMENTARY SCHOOL-85029,PHOENIX,MARICOPA,85029.0,PUBLIC,76,0.91
659,CHOLLA ELEMENTARY SCHOOL,CASA GRANDE,PINAL,85222.0,PUBLIC,76,0.97
660,DILWORTH BRINTON ELEMENTARY,MESA,MARICOPA,85208.0,PUBLIC,76,0.97
661,DOS RIOS ELEMENTARY,TOLLESON,MARICOPA,85353.0,PUBLIC,76,0.99
662,EAGLERIDGE ENRICHMENT PROGRAM,MESA,MARICOPA,85202.0,PUBLIC,76,0.57
663,GLENDALE AMERICAN SCHOOL,GLENDALE,MARICOPA,85302.0,PUBLIC,76,0.97
664,GRIFFITH ELEMENTARY SCHOOL,PHOENIX,MARICOPA,85008.0,PUBLIC,76,0.96
665,HUACHUCA MOUNTAIN ELEMENTARY SCHOOL,SIERRA VISTA,COCHISE,85650.0,PUBLIC,76,0.97
666,INNOVATION ACADEMY K-5 STEM SCHOOL,ORO VALLEY,PIMA,85755.0,PUBLIC,76,0.93
667,LAFE NELSON SCHOOL,SAFFORD,GRAHAM,85546.0,PUBLIC,76,0.96
668,LIBERTY TRADITIONAL SCHOOL,PRESCOTT VALLEY,YAVAPAI,86314.0,PUBLIC,76,0.97
669,MITCHELL ELEMENTARY SCHOOL,PHOENIX,MARICOPA,85009.0,PUBLIC,76,1.0
670,PAN-AMERICAN ELEMENTARY CHARTER SCHOOL,PHOENIX,MARICOPA,85017.0,CHARTER,76,0.99
671,PIONEER ELEMENTARY SCHOOL-85234,GILBERT,MARICOPA,85234.0,PUBLIC,76,0.96
672,PLAYA DEL REY ELEMENTARY SCHOOL,GILBERT,MARICOPA,85233.0,PUBLIC,76,0.9
673,QUENTIN ELEMENTARY,AVONDALE,MARICOPA,85323.0,PUBLIC,76,0.97
674,SAN TAN HEIGHTS ELEMENTARY,QUEEN CREEK,PINAL,85142.0,PUBLIC,76,0.78
675,STEVEN R JASINSKI ELEMENTARY SCHOOL,BUCKEYE,MARICOPA,85326.0,PUBLIC,76,0.95
676,SUNRISE DRIVE ELEMENTARY SCHOOL,TUCSON,PIMA,85718.0,PUBLIC,76,0.99
677,WEITZEL'S PUENTE DE HOZHO BILINQUAL SCHOOL,FLAGSTAFF,COCONINO,86004.0,PUBLIC,76,0.96
678,WESTERN PEAKS ELEMENTARY,SURPRISE,MARICOPA,85388.0,PUBLIC,76,0.93
679,TOWNE MEADOWS ELEMENTARY SCHOOL,HIGLEY,MARICOPA,85234.0,PUBLIC,76,0.97
680,ARIZONA CONNECTIONS ACADEMY,GILBERT,MARICOPA,85297.0,CHARTER,77,0.7
681,C I WAGGONER SCHOOL,TEMPE,MARICOPA,85284.0,PUBLIC,77,0.96
682,ELLSWORTH ELEMENTARY,QUEEN CREEK,PINAL,85140.0,PUBLIC,77,0.96
683,GADSDEN ELEMENTARY SCHOOL,GADSDEN,YUMA,85349.0,PUBLIC,77,1.0
684,"HARVEST PREPARATORY ACADEMY, SAN LUIS",SAN LUIS,YUMA,85349.0,CHARTER,77,1.0
685,J  ROBERT HENDRICKS ELEMENTARY SCHOOL,TUCSON,PIMA,85741.0,PUBLIC,77,0.95
686,JACK BARNES ELEMENTARY SCHOOL,QUEEN CREEK,MARICOPA,85242.0,PUBLIC,77,0.95
687,JANE D. HULL ELEMENTARY,CHANDLER,MARICOPA,85249.0,PUBLIC,77,0.91
688,OASIS ELEMENTARY SCHOOL,PEORIA,MARICOPA,85381.0,PUBLIC,77,0.95
689,PENDERGAST ELEMENTARY SCHOOL,PHOENIX,MARICOPA,85037.0,PUBLIC,77,1.0
690,PIMA ELEMENTARY SCHOOL,PIMA,GRAHAM,,PUBLIC,77,0.95
691,REID TRADITIONAL SCHOOL PAINTED ROCK ACADEMY,PHOENIX,MARICOPA,85023.0,CHARTER,77,0.91
692,RIVERSIDE TRADITIONAL SCHOOL,PHOENIX,MARICOPA,85043.0,PUBLIC,77,0.99
693,SAHUARO RANCH ELEMENTARY SCHOOL,GLENDALE,MARICOPA,85302.0,PUBLIC,77,0.91
694,STEVENSON ELEMENTARY SCHOOL,MESA,MARICOPA,85208.0,PUBLIC,77,0.9
695,SUNSET RIDGE ELEMENTARY-85086,PHOENIX,MARICOPA,85086.0,PUBLIC,77,0.91
696,VISTA COLLEGE PREP - MARYVALE,PHOENIX,MARICOPA,85035.0,CHARTER,77,0.96
697,WHITTIER ELEMENTARY SCHOOL-85201,MESA,MARICOPA,85201.0,PUBLIC,77,0.97
698,SUNSET VISTA ELEMENTARY,GLENDALE,MARICOPA,85303.0,PUBLIC,77,0.99
699,BARCELONA ELEMENTARY SCHOOL,GLENDALE,MARICOPA,85301.0,PUBLIC,78,0.96
700,BUTTERFIELD ELEMENTARY SCHOOL,TUCSON,PIMA,85741.0,PUBLIC,78,0.89
701,CANYON SPRINGS,ANTHEM,MARICOPA,85087.0,PUBLIC,78,0.91
702,DESERT HARBOR ELEMENTARY SCHOOL,PEORIA,MARICOPA,,CHARTER,78,0.96
703,DESERT VIEW ELEMENTARY,SAN LUIS,YUMA,85349.0,PUBLIC,78,1.0
704,DREXEL ELEMENTARY SCHOOL,TUCSON,PIMA,85706.0,PUBLIC,78,1.0
705,GARDEN LAKES ELEMENTARY SCHOOL,AVONDALE,MARICOPA,85392.0,PUBLIC,78,0.95
706,HAPPY VALLEY SCHOOL - EAST CAMPUS,SAN TAN VALLEY,PINAL,85140.0,CHARTER,78,0.97
707,LAVEEN ELEMENTARY SCHOOL,LAVEEN,MARICOPA,85339.0,PUBLIC,78,0.94
708,MACARTHUR ELEMENTARY SCHOOL,MESA,MARICOPA,85203.0,PUBLIC,78,0.87
709,MARSHALL RANCH ELEMENTARY SCHOOL,GLENDALE,MARICOPA,85304.0,PUBLIC,78,0.96
710,MICHAEL T. HUGHES ELEMENTARY SCHOOL,MESA,MARICOPA,85203.0,PUBLIC,78,0.91
711,PRINCE ELEMENTARY SCHOOL,TUCSON,PIMA,85705.0,PUBLIC,78,1.0
712,SUN VALLEY ELEMENTARY SCHOOL,PEORIA,MARICOPA,85345.0,PUBLIC,78,0.97
713,TAYLOR ELEMENTARY SCHOOL,TAYLOR,NAVAJO,85939.0,PUBLIC,78,0.85
714,WHISPERING WIND ACADEMY,PHOENIX,MARICOPA,85032.0,PUBLIC,78,0.97
715,WOOD ELEMENTARY SCHOOL,TEMPE,MARICOPA,85283.0,PUBLIC,78,0.94
716,ARREDONDO ELEMENTARY SCHOOL,TEMPE,MARICOPA,85282.0,PUBLIC,79,0.98
717,CAROL G. PECK ELEMENTARY SCHOOL,GLENDALE,MARICOPA,85301.0,PUBLIC,79,0.99
718,DAVID CROCKETT SCHOOL,PHOENIX,MARICOPA,85008.0,PUBLIC,79,0.95
719,EAGLE COLLEGE PREP,PHOENIX,MARICOPA,85041.0,CHARTER,79,0.95
720,EL MIRAGE ELEMENTARY SCHOOL,EL MIRAGE,MARICOPA,85335.0,PUBLIC,79,0.96
721,FINLEY FARMS ELEMENTARY,GILBERT,MARICOPA,85296.0,PUBLIC,79,0.94
722,HUDSON ELEMENTARY SCHOOL,TEMPE,MARICOPA,85282.0,PUBLIC,79,0.94
723,INCA ELEMENTARY SCHOOL,BUCKEYE,MARICOPA,85326.0,PUBLIC,79,0.96
724,JACK HARMON ELEMENTARY,QUEEN CREEK,PINAL,85240.0,PUBLIC,79,0.94
725,KYRENE DE LA ESPERANZA SCHOOL,PHOENIX,MARICOPA,85044.0,PUBLIC,79,0.9
726,LOS AMIGOS ELEMENTARY SCHOOL,TUCSON,PIMA,85706.0,PUBLIC,79,1.0
727,LOS NINOS ELEMENTARY SCHOOL,TUCSON,PIMA,85706.0,PUBLIC,79,0.99
728,SEQUOIA PATHWAY ACADEMY,MARICOPA,PINAL,85138.0,CHARTER,79,0.98
729,THOMAS M KNOLES ELEMENTARY SCHOOL,FLAGSTAFF,COCONINO,86004.0,PUBLIC,79,0.92
730,TANQUE VERDE ELEMENTARY SCHOOL,TUCSON,PIMA,85749.0,PUBLIC,79,0.96
731,VILLAGE MEADOWS ELEMENTARY SCHOOL,SIERRA VISTA,COCHISE,85635.0,PUBLIC,79,0.98
732,AMERICAN LEADERSHIP ACADEMY- SIGNAL BUTTE K-6 CAMPUS,QUEEN CREEK,MARICOPA,85142.0,CHARTER,80,0.85
733,ARIZONA DESERT ELEMENTARY SCHOOL,SAN LUIS,YUMA,85349.0,PUBLIC,80,1.0
734,BASHA ELEMENTARY,CHANDLER,MARICOPA,85248.0,PUBLIC,80,0.94
735,ED PASTOR ELEMENTARY 4,SAN LUIS,YUMA,85349.0,PUBLIC,80,1.0
736,ESPERANZA ELEMENTARY SCHOOL-85027,PHOENIX,MARICOPA,85027.0,PUBLIC,80,0.94
737,FRYE ELEMENTARY SCHOOL,CHANDLER,MARICOPA,85225.0,PUBLIC,80,0.98
738,HORSESHOE TRAILS ELEMENTARY SCHOOL,PHOENIX,MARICOPA,85054.0,PUBLIC,80,0.86
739,OCOTILLO RIDGE ELEMENTARY,VAIL,PIMA,85641.0,PUBLIC,80,0.98
740,SACATON ELEMENTARY,SACATON,PINAL,85247.0,PUBLIC,80,1.0
741,SUNSET SCHOOL,GLENDALE,MARICOPA,85302.0,PUBLIC,80,0.94
742,VAL VISTA LAKES ELEMENTARY SCHOOL,GILBERT,MARICOPA,85234.0,PUBLIC,80,0.86
743,COPPER KING ELEMENTARY,PHOENIX,MARICOPA,85037.0,PUBLIC,81,0.98
744,COYOTE SPRINGS ELEMENTARY SCHOOL,PRESCOTT VALLEY,YAVAPAI,86314.0,PUBLIC,81,0.94
745,HARVEST PREPARATORY ACADEMY,YUMA,YUMA,85364.0,CHARTER,81,1.0
746,KYRENE DEL MILENIO,PHOENIX,MARICOPA,85048.0,PUBLIC,81,0.96
747,MARIONNEAUX ELEMENTARY SCHOOL,BUCKEYE,MARICOPA,85326.0,PUBLIC,81,0.94
748,MERCURY MINE ELEMENTARY SCHOOL,PHOENIX,MARICOPA,85028.0,PUBLIC,81,0.95
749,QUEEN CREEK ELEMENTARY SCHOOL,QUEEN CREEK,MARICOPA,85142.0,PUBLIC,81,1.0
750,SUNNYSLOPE ELEMENTARY SCHOOL,PHOENIX,MARICOPA,85020.0,PUBLIC,81,0.98
751,WOOD ELEMENTARY SCHOOL,TEMPE,MARICOPA,85283.0,PUBLIC,81,0.94
752,THOMPSON RANCH ELEMENTARY,EL MIRAGE,MARICOPA,85335.0,PUBLIC,81,0.96
753,WALTER DOUGLAS ELEMENTARY SCHOOL,TUCSON,PIMA,85705.0,PUBLIC,81,0.98
754,AMERICAN LEADERSHIP ACADEMY ANTHEM SOUTH CAMPUS,FLORENCE,PINAL,85132.0,CHARTER,82,0.87
755,COPPER TRAILS ELEMENTARY,GOODYEAR,MARICOPA,85338.0,PUBLIC,82,0.96
756,DESERT OASIS ELEMENTARY SCHOOL-85037,PHOENIX,MARICOPA,85037.0,PUBLIC,82,0.95
757,DESERT TRAILS ELEMENTARY SCHOOL,PHOENIX,MARICOPA,85050.0,PUBLIC,82,0.96
758,KYRENE DE LAS LOMAS SCHOOL,PHOENIX,MARICOPA,85044.0,PUBLIC,82,0.94
759,KYRENE DEL SURENO SCHOOL,CHANDLER,MARICOPA,85226.0,PUBLIC,82,0.95
760,MABEL PADGETT ELEMENTARY SCHOOL,GOODYEAR,MARICOPA,85395.0,PUBLIC,82,0.95
761,PIMA ELEMENTARY SCHOOL,SCOTTSDALE,MARICOPA,85251.0,PUBLIC,82,0.95
762,SANTAN ELEMENTARY SCHOOL,CHANDLER,MARICOPA,85249.0,PUBLIC,82,1.0
763,SEVEN MILE SCHOOL,WHITERIVER,NAVAJO,85941.0,PUBLIC,82,1.0
764,SONORAN HEIGHTS ELEMENTARY,SURPRISE,MARICOPA,85379.0,PUBLIC,82,1.0
765,THOMPSON RANCH ELEMENTARY,EL MIRAGE,MARICOPA,85335.0,PUBLIC,82,0.99
766,WRIGHTSON RIDGE SCHOOL,SAHUARITA,PIMA,85629.0,PUBLIC,82,0.96
767,THOMAS A EDISON SCHOOL,PHOENIX,MARICOPA,85006.0,PUBLIC,82,0.98
768,ZUNI HILLS ELEMENTARY SCHOOL,PEORIA,MARICOPA,85373.0,PUBLIC,82,0.89
769,COPPER CREEK ELEMENTARY,GLENDALE,MARICOPA,85310.0,PUBLIC,83,0.94
770,FRUCHTHENDLER ELEMENTARY SCHOOL,TUCSON,PIMA,85750.0,PUBLIC,83,0.99
771,JOHN M ANDERSEN ELEMENTARY SCHOOL,CHANDLER,MARICOPA,85224.0,PUBLIC,83,0.93
772,LIBERTY ELEMENTARY SCHOOL,TUCSON,PIMA,85706.0,PUBLIC,83,1.0
773,NOAH WEBSTER SCHOOLS-PIMA,SCOTTSDALE,MARICOPA,85250.0,CHARTER,83,0.92
774,PUEBLO ELEMENTARY SCHOOL,YUMA,YUMA,85364.0,PUBLIC,83,0.96
775,SANTA FE ELEMENTARY SCHOOL,PEORIA,MARICOPA,85345.0,PUBLIC,83,0.96
776,SONORAN SKY ELEMENTARY SCHOOL-85260,SCOTTSDALE,MARICOPA,85260.0,PUBLIC,83,0.96
777,VASQUEZ DE CORONADO FRANCISCO SCHOOL,NOGALES,SANTA CRUZ,85621.0,PUBLIC,83,0.99
778,WEST POINT ELEMENTARY,SURPRISE,MARICOPA,85374.0,PUBLIC,83,0.93
779,VALLE DEL ENCANTO LEARNING CENTER,SOMERTON,YUMA,85350.0,PUBLIC,83,0.99
780,BARBARA BUSH ELEMENTARY SCHOOL,MESA,MARICOPA,85205.0,PUBLIC,84,0.92
781,DESERT CANYON ELEMENTARY,SCOTTSDALE,MARICOPA,85255.0,PUBLIC,84,0.91
782,FLORA THEW ELEMENTARY SCHOOL,TEMPE,MARICOPA,85281.0,PUBLIC,84,0.98
783,FRANKLIN WEST ELEMENTARY,MESA,MARICOPA,85210.0,PUBLIC,84,0.89
784,HOLDEMAN ELEMENTARY SCHOOL,TEMPE,MARICOPA,85281.0,PUBLIC,84,0.94
785,IMAGINE ELEMENTARY AT CORTEZ PARK,PHOENIX,MARICOPA,85051.0,CHARTER,84,0.99
786,JOHN & CAROL CARLSON ELEMENTARY,CHANDLER,MARICOPA,85249.0,PUBLIC,84,0.96
787,LA PALOMA ACADEMY - CENTRAL,TUCSON,PIMA,85712.0,CHARTER,84,0.93
788,MOON MOUNTAIN SCHOOL,PHOENIX,MARICOPA,85029.0,PUBLIC,84,0.99
789,SCALES TECHNOLOGY ACADEMY,TEMPE,MARICOPA,85281.0,PUBLIC,84,0.91
790,TAYLOR HICKS SCHOOL,PRESCOTT,YAVAPAI,86301.0,PUBLIC,84,0.95
791,WALKER BUTTE K-8,QUEEN CREEK,PINAL,85143.0,PUBLIC,84,0.96
792,BASIS PHOENIX SOUTH PRIMARY SCHOOL,PHOENIX,MARICOPA,85041.0,CHARTER,85,0.92
793,BUCKEYE PRIMARY SCHOOL,BUCKEYE,MARICOPA,85326.0,PUBLIC,85,0.94
794,HOPI ELEMENTARY SCHOOL,PHOENIX,MARICOPA,85018.0,PUBLIC,85,0.91
795,KERR ELEMENTARY SCHOOL,MESA,MARICOPA,85201.0,PUBLIC,85,0.91
796,SHEELY FARMS ELEMENTARY SCHOOL,PHOENIX,MARICOPA,85037.0,PUBLIC,85,0.95
797,SUNDANCE ELEMENTARY SCHOOL-85326,BUCKEYE,MARICOPA,85326.0,PUBLIC,85,0.97
798,SYCAMORE ELEMENTARY,VAIL,PIMA,85641.0,PUBLIC,85,0.98
799,WEITZEL'S PUENTE DE HOZHO BILINQUAL SCHOOL,FLAGSTAFF,COCONINO,86004.0,PUBLIC,85,0.99
800,COYOTE TRAIL ELEMENTARY SCHOOL,TUCSON,PIMA,85743.0,PUBLIC,86,0.99
801,HOLMES ELEMENTARY SCHOOL,MESA,MARICOPA,85204.0,PUBLIC,86,0.94
802,ISLANDS ELEMENTARY SCHOOL,GILBERT,MARICOPA,85233.0,PUBLIC,86,0.93
803,KELLER ELEMENTARY SCHOOL,MESA,MARICOPA,85204.0,PUBLIC,86,0.94
804,MAGMA RANCH K-8 SCHOOL,FLORENCE,PINAL,85232.0,PUBLIC,86,0.99
805,MARILYN THIELE WILSON SCHOOL,MESA,MARICOPA,85206.0,PUBLIC,86,0.95
806,RIVERVIEW SCHOOL,EL MIRAGE,MARICOPA,85335.0,PUBLIC,86,0.95
807,WEBSTER ELEMENTARY SCHOOL,MESA,MARICOPA,85201.0,PUBLIC,86,0.93
808,FRANK ELEMENTARY SCHOOL,GUADALUPE,MARICOPA,85283.0,PUBLIC,87,0.99
809,GREAT HEART ACADEMIES ARCHWAY CICERO,SCOTTSDALE,MARICOPA,85258.0,CHARTER,87,0.91
810,LEGACY TRADITIONAL  SCHOOL- GOODYEAR,GOODYEAR,MARICOPA,85338.0,CHARTER,87,0.95
811,MENDOZA ELEMENTARY SCHOOL,MESA,MARICOPA,85205.0,PUBLIC,87,0.93
812,MESQUITE ELEMENTARY SCHOOL,GILBERT,MARICOPA,85296.0,PUBLIC,87,0.9
813,ARROWHEAD ELEMENTARY SCHOOL-85308,GLENDALE,MARICOPA,85308.0,PUBLIC,88,0.98
814,BENSON PRIMARY SCHOOL,BENSON,COCHISE,85602.0,PUBLIC,88,0.82
815,CANYON RIDGE ELEMENTARY,SURPRISE,MARICOPA,85388.0,PUBLIC,88,0.92
816,DR HOWARD K CONLEY ELEMENTARY SCHOOL,CHANDLER,MARICOPA,85224.0,PUBLIC,88,0.98
817,DWIGHT PATTERSON ELEMENTARY,MESA,MARICOPA,85208.0,PUBLIC,88,0.97
818,ENTZ ELEMENTARY SCHOOL,MESA,MARICOPA,85205.0,PUBLIC,88,0.94
819,ESPERANZA ELEMENTARY SCHOOL,TUCSON,PIMA,85706.0,PUBLIC,88,0.99
820,GREAT HEARTS ACADEMIES - ARCHWAY ARETE GILBERT,MESA,MARICOPA,85234.0,CHARTER,88,0.96
821,INDIAN OASIS PRIMARY SCHOOL,SELLS,PIMA,85634.0,PUBLIC,88,1.0
822,LEGEND SPRINGS ELEMENTARY,GLENDALE,MARICOPA,85308.0,PUBLIC,88,1.0
823,MADRID NEIGHBORHOOD SCHOOL,PHOENIX,MARICOPA,85019.0,PUBLIC,88,0.96
824,MCDOWELL MOUNTAIN ELEMENTARY SCHOOL,FOUNTAIN HILLS,MARICOPA,85268.0,PUBLIC,88,0.96
825,SCOTT L LIBBY ELEMENTARY SCHOOL,LITCHFIELD PARK,MARICOPA,85340.0,PUBLIC,88,0.93
826,SPECTRUM ELEMENTARY,GILBERT,MARICOPA,85295.0,PUBLIC,88,0.93
827,SUN VALLEY CHARTER SCHOOL,PHOENIX,MARICOPA,85041.0,CHARTER,88,0.88
828,VISTA DEL SUR TRADITIONAL SCHOOL,LAVEEN,MARICOPA,85339.0,PUBLIC,88,0.97
829,WEBSTER ELEMENTARY SCHOOL,MESA,MARICOPA,85201.0,PUBLIC,88,0.9
830,VISTA DEL SUR TRADITIONAL SCHOOL,LAVEEN,MARICOPA,85339.0,PUBLIC,88,0.98
831,ALTA LOMA SCHOOL,PEORIA,MARICOPA,85345.0,PUBLIC,89,0.98
832,COTTON BOLL SCHOOL,PEORIA,MARICOPA,85345.0,PUBLIC,89,0.94
833,CURIEL SCHOOL,ELOY,PINAL,85131.0,PUBLIC,89,0.99
834,DYSART ELEMENTARY SCHOOL,EL MIRAGE,MARICOPA,85335.0,PUBLIC,89,0.9
835,HERITAGE ELEMENTARY SCHOOL - EAST CAMPUS,GLENDALE,MARICOPA,85307.0,CHARTER,89,0.93
836,PAPAGO SCHOOL,PHOENIX,MARICOPA,85008.0,PUBLIC,89,0.98
837,PASEO HILLS ELEMENTARY,PHOENIX,MARICOPA,85027.0,PUBLIC,89,0.92
838,RIDGELINE ACADEMY,PHOENIX,MARICOPA,85085.0,CHARTER,89,0.97
839,SIERRA VERDE ELEMENTARY,GLENDALE,MARICOPA,85308.0,PUBLIC,89,0.93
840,VESEY ELEMENTARY SCHOOL,TUCSON,PIMA,85757.0,PUBLIC,89,1.0
841,WHEELER ELEMENTARY SCHOOL,TUCSON,PIMA,85710.0,PUBLIC,89,0.97
842,WEST WING SCHOOL,PEORIA,MARICOPA,85383.0,PUBLIC,89,0.96
843,AMERICAN LEADERSHIP ACADEMY - QUEEN CREEK,QUEEN CREEK,MARICOPA,,CHARTER,90,0.87
844,ARCHWAY CLASSICAL ACADEMY - CHANDLER,CHANDLER,MARICOPA,85224.0,CHARTER,90,0.98
845,CHEYENNE TRADITIONAL ELEMENTARY SCHOOL,SCOTTSDALE,MARICOPA,85260.0,PUBLIC,90,0.94
846,COPPER VIEW ELEMENTARY SCHOOL,SAHUARITA,PIMA,85629.0,PUBLIC,90,0.98
847,DESERT MIRAGE ELEMENTARY SCHOOL,GLENDALE,MARICOPA,85305.0,PUBLIC,90,1.0
848,FIELD ELEMENTARY SCHOOL,MESA,MARICOPA,85213.0,PUBLIC,90,0.98
849,JUSTINE SPITALNY ELEMENTARY SCHOOL,PHOENIX,MARICOPA,85031.0,PUBLIC,90,0.99
850,NORTH RANCH ELEMENTARY SCHOOL,SCOTTSDALE,MARICOPA,85254.0,PUBLIC,90,0.98
851,TOWNE MEADOWS ELEMENTARY SCHOOL,HIGLEY,MARICOPA,85234.0,PUBLIC,90,0.97
852,SURPRISE ELEMENTARY SCHOOL,EL MIRAGE,MARICOPA,85335.0,PUBLIC,90,0.94
853,VESEY ELEMENTARY SCHOOL,TUCSON,PIMA,85757.0,PUBLIC,90,0.97
854,ARCHWAY CLASSICAL ACADEMY GLENDALE,PEORIA,MARICOPA,85383.0,CHARTER,91,0.92
855,BASIS CHANDLER PRIMARY SOUTH CAMPUS,CHANDLER,MARICOPA,85248.0,CHARTER,91,0.95
856,C W MCGRAW ELEMENTARY SCHOOL,YUMA,YUMA,85364.0,PUBLIC,91,0.93
857,GARY A KNOX ELEMENTARY,YUMA,YUMA,85364.0,PUBLIC,91,0.98
858,HORIZON SCHOOL,GLENDALE,MARICOPA,85302.0,PUBLIC,91,0.96
859,IMAGINE ELEMENTARY AT AVONDALE,AVONDALE,MARICOPA,85053.0,CHARTER,91,0.98
860,JOHN F KENNEDY ELEMENTARY SCHOOL,PHOENIX,MARICOPA,85042.0,PUBLIC,91,0.98
861,KYRENE DE LA MARIPOSA SCHOOL,TEMPE,MARICOPA,85284.0,PUBLIC,91,0.9
862,KYRENE DEL NORTE SCHOOL,TEMPE,MARICOPA,85283.0,PUBLIC,91,0.99
863,MANZANITA SCHOOL,TUCSON,PIMA,85718.0,PUBLIC,91,0.99
864,MAURICE C CASH SCHOOL,PHOENIX,MARICOPA,85041.0,PUBLIC,91,0.97
865,P T COE ELEMENTARY SCHOOL,PHOENIX,MARICOPA,85009.0,PUBLIC,91,0.98
866,SANBORN ELEMENTARY SCHOOL,CHANDLER,MARICOPA,85225.0,PUBLIC,91,0.92
867,SUNSET VISTA ELEMENTARY,GLENDALE,MARICOPA,85303.0,PUBLIC,91,0.96
868,SURPRISE ELEMENTARY SCHOOL,EL MIRAGE,MARICOPA,85335.0,PUBLIC,91,0.97
869,ACADEMY OF MATH AND SCIENCE CAMELBACK,PHOENIX,MARICOPA,85033.0,CHARTER,92,0.98
870,AGUILAR SCHOOL,TEMPE,MARICOPA,85283.0,PUBLIC,92,0.96
871,BASIS - SCOTTSDALE PRIMARY WEST CAMPUS,SCOTTSDALE,MARICOPA,85260.0,CHARTER,92,0.91
872,CANYON RIM ELEMENTARY,MESA,MARICOPA,85212.0,PUBLIC,92,0.9
873,CHALLENGE CHARTER SCHOOL,GLENDALE,MARICOPA,85308.0,CHARTER,92,0.86
874,COUNTRY PLACE ELEMENTARY,TOLLESON,MARICOPA,85353.0,PUBLIC,92,0.96
875,DESERT WILLOW ELEMENTARY SCHOOL,CAVE CREEK,MARICOPA,85331.0,PUBLIC,92,0.98
876,DIAMONDBACK ELEMENTARY SCHOOL,BULLHEAD CITY,MOHAVE,86442.0,PUBLIC,92,0.98
877,FRONTIER ELEMENTARY SCHOOL,PEORIA,MARICOPA,85382.0,PUBLIC,92,0.97
878,KNOX ELEMENTARY SCHOOL,CHANDLER,MARICOPA,85225.0,PUBLIC,92,0.95
879,LINCOLN ELEMENTARY SCHOOL,MESA,MARICOPA,85210.0,PUBLIC,92,0.98
880,MANUEL PENA JR. ELEMENTARY SCHOOL,PHOENIX,MARICOPA,85035.0,PUBLIC,92,0.97
881,PASEO VERDE ELEMENTARY SCHOOL,PEORIA,MARICOPA,85381.0,PUBLIC,92,0.94
882,T DALE HANCOCK ELEMENTARY,CHANDLER,MARICOPA,85286.0,PUBLIC,92,0.96
883,TARTESSO ELEMENTARY SCHOOL,BUCKEYE,MARICOPA,85322.0,PUBLIC,92,0.98
884,VERRADO HERITAGE ELEMENTARY SCHOOL,BUCKEYE,MARICOPA,85396.0,PUBLIC,92,0.91
885,CAMPO BELLO ELEMENTARY SCHOOL,PHOENIX,MARICOPA,85032.0,PUBLIC,93,0.88
886,COLLIER ELEMENTARY SCHOOL,AVONDALE,MARICOPA,85323.0,PUBLIC,93,0.97
887,ESPERANZA ELEMENTARY SCHOOL-85009,PHOENIX,MARICOPA,85009.0,PUBLIC,93,1.0
888,FULLER ELEMENTARY SCHOOL,TEMPE,MARICOPA,85283.0,PUBLIC,93,0.91
889,HARTFORD SYLVIA ENCINAS ELEMENTARY SCHOOL,CHANDLER,MARICOPA,85225.0,PUBLIC,93,0.98
890,JOHN E WRIGHT ELEMENTARY SCHOOL,TUCSON,PIMA,85712.0,PUBLIC,93,0.97
891,MANZANITA ELEMENTARY SCHOOL,PHOENIX,MARICOPA,85051.0,PUBLIC,93,1.0
892,MARYLAND ELEMENTARY SCHOOL,PHOENIX,MARICOPA,85015.0,PUBLIC,93,0.96
893,SUMMIT ACADEMY,CHANDLER,MARICOPA,85224.0,PUBLIC,93,0.94
894,TERRAMAR ELEMENTARY,PEORIA,MARICOPA,85383.0,PUBLIC,93,0.91
895,CORONADO ELEMENTARY SCHOOL,GILBERT,MARICOPA,85297.0,PUBLIC,94,0.93
896,CROWN CHARTER SCHOOL,LITCHFIELD PARK,MARICOPA,85340.0,CHARTER,94,0.97
897,FRANCES BRANDEN-PICKETT ELEMENTARY,QUEEN CREEK,MARICOPA,85242.0,PUBLIC,94,0.92
898,GILBERT ELEMENTARY SCHOOL,GILBERT,MARICOPA,85233.0,PUBLIC,94,0.9
899,GREAT HEARTS ACADEMIES - ARCHWAY CLASSICAL ACADEMY TRIVIUM EAST,GOODYEAR,MARICOPA,,CHARTER,94,0.93
900,MERIDIAN ELEMENTARY,MESA,MARICOPA,85212.0,PUBLIC,94,0.96
901,ROADRUNNER ELEMENTARY SCHOOL,PHOENIX,MARICOPA,85051.0,PUBLIC,94,1.0
902,SADDLEBACK ELEMENTARY SCHOOL,MARICOPA,PINAL,85138.0,PUBLIC,94,0.95
903,T DALE HANCOCK ELEMENTARY,CHANDLER,MARICOPA,85286.0,PUBLIC,94,0.99
904,TARTESSO ELEMENTARY SCHOOL,BUCKEYE,MARICOPA,85322.0,PUBLIC,94,0.9
905,WEINBERG ELEMENTARY SCHOOL,CHANDLER,MARICOPA,85298.0,PUBLIC,94,0.94
906,WHITMAN ELEMENTARY SCHOOL,MESA,MARICOPA,85201.0,PUBLIC,94,0.93
907,TUSCANO ELEMENTARY SCHOOL,PHOENIX,MARICOPA,85043.0,PUBLIC,94,1.0
908,AMERICAN LEADERSHIP ACADEMY - SAN TAN,QUEEN CREEK,MARICOPA,85142.0,CHARTER,95,0.9
909,BASIS GOODYEAR,GOODYEAR,MARICOPA,85338.0,CHARTER,95,0.96
910,BASIS GOODYEAR PRIMARY,GOODYEAR,MARICOPA,85338.0,CHARTER,95,0.96
911,BENJAMIN FRANKLIN CHARTER SCHOOL - GILBERT,GILBERT,MARICOPA,85296.0,CHARTER,95,0.91
912,C E ROSE ELEMENTARY SCHOOL,TUCSON,PIMA,85714.0,PUBLIC,95,0.99
913,CONSTITUTION ELEMENTARY SCHOOL,PHOENIX,MARICOPA,85023.0,PUBLIC,95,0.94
914,CURRY ELEMENTARY SCHOOL,TEMPE,MARICOPA,85282.0,PUBLIC,95,0.94
915,FOUR PEAKS ELEMENTARY SCHOOL,APACHE JUNCTION,PINAL,85219.0,PUBLIC,95,0.96
916,HIGHLAND LAKES SCHOOL,GLENDALE,MARICOPA,85308.0,PUBLIC,95,0.96
917,IMAGINE CHARTER ELEMENTARY SCHOOL AT EAST,MESA,MARICOPA,85209.0,CHARTER,95,0.93
918,LAS BRISAS ELEMENTARY SCHOOL,GLENDALE,MARICOPA,85310.0,PUBLIC,95,0.92
919,LAS SENDAS ELEMENTARY SCHOOL,MESA,MARICOPA,85207.0,PUBLIC,95,0.97
920,LINEWEAVER ELEMENTARY SCHOOL,TUCSON,PIMA,85711.0,PUBLIC,95,0.93
921,STETSON HILLS ELEMENTARY,GLENDALE,MARICOPA,85083.0,PUBLIC,95,0.95
922,SUN CANYON ELEMENTARY SCHOOL,PHOENIX,MARICOPA,85043.0,PUBLIC,95,1.0
923,SUNRISE ELEMENTARY,BULLHEAD CITY,MOHAVE,86429.0,PUBLIC,95,0.95
924,SUNSET HILLS ELEMENTARY,SURPRISE,MARICOPA,85388.0,PUBLIC,95,0.93
925,SYNERGY PUBLIC SCHOOL,PHOENIX,MARICOPA,85017.0,CHARTER,95,0.93
926,TAVAN ELEMENTARY SCHOOL,PHOENIX,MARICOPA,85018.0,PUBLIC,95,0.97
927,CHEATHAM ELEMENTARY SCHOOL,LAVEEN,MARICOPA,85339.0,PUBLIC,96,0.94
928,CORDOVA ELEMENTARY SCHOOL,PHOENIX,MARICOPA,85017.0,PUBLIC,96,0.95
929,ESTRELLA VISTA ELEMENTARY,AVONDALE,MARICOPA,85323.0,PUBLIC,96,0.94
930,JOHN E WHITE ELEMENTARY SCHOOL,TUCSON,PIMA,85746.0,PUBLIC,96,0.99
931,MANUEL DEMIGUEL ELEMENTARY SCHOOL,FLAGSTAFF,COCONINO,86005.0,PUBLIC,96,0.96
932,MIRAGE ELEMENTARY SCHOOL,GLENDALE,MARICOPA,85308.0,PUBLIC,96,0.98
933,PALMCROFT ELEMENTARY SCHOOL,YUMA,YUMA,85364.0,PUBLIC,96,0.97
934,POMEROY ELEMENTARY SCHOOL,CHANDLER,MARICOPA,85224.0,PUBLIC,96,0.91
935,ALHAMBRA TRADITIONAL SCHOOL,PHOENIX,MARICOPA,85017.0,PUBLIC,97,0.98
936,DESERT HORIZON ELEMENTARY SCHOOL,PHOENIX,MARICOPA,85037.0,PUBLIC,97,0.99
937,DESERT SONORA ELEMENTARY SCHOOL,SOMERTON,YUMA,85350.0,PUBLIC,97,0.98
938,EDISON ELEMENTARY SCHOOL,MESA,MARICOPA,85203.0,PUBLIC,97,0.96
939,SANDPIPER ELEMENTARY SCHOOL,SCOTTSDALE,MARICOPA,85254.0,PUBLIC,97,0.9
940,SENITA VALLEY ELEMENTARY SCHOOL,TUCSON,PIMA,85747.0,PUBLIC,97,0.99
941,SOLANO SCHOOL,PHOENIX,MARICOPA,85015.0,PUBLIC,97,0.83
942,WEST WING SCHOOL,PEORIA,MARICOPA,85383.0,PUBLIC,97,0.89
943,ZUNI HILLS ELEMENTARY SCHOOL,PEORIA,MARICOPA,85373.0,PUBLIC,97,0.9
944,TIERRA DEL SOL ELEMENTARY SCHOOL,SOMERTON,YUMA,85350.0,PUBLIC,97,0.98
945,BRIDGES ELEMENTARY SCHOOL,GILBERT,MARICOPA,85298.0,PUBLIC,98,0.92
946,CALABASAS SCHOOL,RIO RICO,SANTA CRUZ,85648.0,PUBLIC,98,1.0
947,DESERT MEADOWS ELEMENTARY SCHOOL,LAVEEN,MARICOPA,85339.0,PUBLIC,98,0.91
948,DOROTHY STINSON SCHOOL,SAFFORD,GRAHAM,85546.0,PUBLIC,98,0.93
949,J B SUTTON ELEMENTARY SCHOOL,PHOENIX,MARICOPA,85009.0,PUBLIC,98,0.97
950,LEADING EDGE ACADEMY - MARICOPA CAMPUS,MARICOPA,PINAL,85238.0,CHARTER,98,0.84
951,QUAIL RUN ELEMENTARY SCHOOL,TUCSON,PIMA,85742.0,PUBLIC,98,0.94
952,WEST ELEMENTARY SCHOOL,COOLIDGE,PINAL,85128.0,PUBLIC,98,0.99
953,BARBARA B ROBEY ELEMENTARY,LITCHFIELD PARK,MARICOPA,85340.0,PUBLIC,99,0.96
954,CENTENNIAL ELEMENTARY SCHOOL,GILBERT,MARICOPA,85297.0,PUBLIC,99,0.92
955,DESERT THUNDER SCHOOL,GOODYEAR,MARICOPA,85338.0,PUBLIC,99,0.93
956,KYRENE DE LA MIRADA SCHOOL,CHANDLER,MARICOPA,85226.0,PUBLIC,99,0.93
957,MARY BELLE MCCORKLE,TUCSON,PIMA,85746.0,PUBLIC,99,0.98
958,RAUL GRIJALVA ELEMENTARY SCHOOL,TUCSON,PIMA,85746.0,PUBLIC,99,0.99
959,RIGGS ELEMENTARY,GILBERT,MARICOPA,85298.0,PUBLIC,99,0.95
960,SAN TAN CHARTER SCHOOL,GILBERT,MARICOPA,85234.0,CHARTER,99,0.78
961,TERRAMAR ELEMENTARY,PEORIA,MARICOPA,85383.0,PUBLIC,99,0.96
962,TWIN PEAKS ELEMENTARY SCHOOL,TUCSON,PIMA,85743.0,PUBLIC,99,0.98
963,BORMAN ELEMENTARY SCHOOL,TUCSON,PIMA,85708.0,PUBLIC,100,0.99
964,BUTTERFIELD ELEMENTARY SCHOOL,MARICOPA,PINAL,85239.0,PUBLIC,100,0.89
965,CATALINA VENTURA SCHOOL,PHOENIX,MARICOPA,85019.0,PUBLIC,100,0.99
966,CESAR CHAVEZ ELEMENTARY,SAN LUIS,YUMA,85349.0,PUBLIC,100,1.0
967,COTTONWOOD ELEMENTARY SCHOOL,TUCSON,PIMA,,PUBLIC,100,0.96
968,GREAT HEARTS ACADEMIES - ARCHWAY CLASSICAL ACADEMY TRIVIUM WEST,GOODYEAR,MARICOPA,85395.0,CHARTER,100,0.85
969,KINGMAN ACADEMY OF LEARNING - PRIMARY,KINGMAN,MOHAVE,86409.0,CHARTER,100,0.97
970,MESQUITE ELEMENTARY SCHOOL,TUCSON,PIMA,,PUBLIC,100,0.95
971,OAKWOOD ELEMENTARY SCHOOL,PEORIA,MARICOPA,85381.0,PUBLIC,100,0.94
972,ODYSSEY PREPERATORY ACADEMY - BUCKEYE APACHE,BUCKEYE,MARICOPA,85326.0,CHARTER,100,0.97
973,REID TRADITIONAL SCHOOLS - VALLEY ACADEMY,PHOENIX,MARICOPA,85027.0,CHARTER,100,0.96
974,WILDFIRE ELEMENTARY,PHOENIX,MARICOPA,85050.0,PUBLIC,100,0.92
975,WEINBERG ELEMENTARY SCHOOL,CHANDLER,MARICOPA,85298.0,PUBLIC,100,0.87
976,ADAMS ELEMENTARY SCHOOL,MESA,MARICOPA,85202.0,PUBLIC,101,0.97
977,AMERICAN LEADERSHIP ACADEMY- GILBERT NORTH K-6 CAMPUS,GILBERT,MARICOPA,85296.0,CHARTER,101,0.89
978,BROADMOR ELEMENTARY SCHOOL,TEMPE,MARICOPA,85282.0,PUBLIC,101,0.97
979,DOVE MOUNTAIN K-8,MARANA,PIMA,85658.0,PUBLIC,101,0.93
980,ELVIRA ELEMENTARY SCHOOL,TUCSON,PIMA,85756.0,PUBLIC,101,0.99
981,INDIAN BEND ELEMENTARY SCHOOL,PHOENIX,MARICOPA,85032.0,PUBLIC,101,0.98
982,KYRENE DE LOS LAGOS SCHOOL,PHOENIX,MARICOPA,85048.0,PUBLIC,101,0.95
983,KYRENE MONTE VISTA SCHOOL,PHOENIX,MARICOPA,85048.0,PUBLIC,101,0.92
984,PORFIRIO H. GONZALES ELEMENTARY SCHOOL,TOLLESON,MARICOPA,85353.0,PUBLIC,101,0.93
985,ALTA VISTA ELEMENTARY SCHOOL,PHOENIX,MARICOPA,85051.0,PUBLIC,102,0.96
986,BENJAMIN FRANKLIN CHARTER SCHOOL - CRIMSON,QUEEN CREEK,MARICOPA,85142.0,CHARTER,102,0.8
987,GATEWAY POINTE ELEMENTARY,HIGLEY,MARICOPA,85236.0,PUBLIC,102,0.92
988,RICHARD E MILLER SCHOOL,PHOENIX,MARICOPA,85021.0,PUBLIC,102,0.95
989,SETTLERS POINT ELEMENTARY,GILBERT,MARICOPA,85296.0,PUBLIC,102,0.94
990,WESTWIND PRIMARY,PHOENIX,MARICOPA,85037.0,PUBLIC,102,0.99
991,ADAMS TRADITIONAL ACADEMY,PHOENIX,MARICOPA,85027.0,CHARTER,103,0.93
992,AMERICAN LEADERSHIP ACADEMY - IRONWOOD K-6,QUEEN CREEK,PINAL,85140.0,CHARTER,103,0.9
993,COCHISE ELEMENTARY SCHOOL,SCOTTSDALE,MARICOPA,85258.0,PUBLIC,103,0.91
994,ODYSSEY PREPERATORY ACADEMY - GOODYEAR,GOODYEAR,MARICOPA,85338.0,CHARTER,103,0.9
995,ORANGEWOOD ELEMENTARY SCHOOL,PHOENIX,MARICOPA,85021.0,PUBLIC,103,0.94
996,SALIDA DEL SOL ELEMENTARY,YUMA,YUMA,85364.0,PUBLIC,103,1.0
997,BASIS PHOENIX CENTRAL PRIMARY,PHOENIX,MARICOPA,85012.0,CHARTER,104,0.93
998,BILTMORE PREPARATORY ACADEMY,PHOENIX,MARICOPA,85018.0,PUBLIC,104,0.97
999,BRET TARVER ELEMENTARY,PHOENIX,MARICOPA,85031.0,PUBLIC,104,1.0
1000,CHARLES W HARRIS ELEMENTARY SCHOOL,PHOENIX,MARICOPA,85035.0,PUBLIC,104,0.98
1001,CHEROKEE ELEMENTARY SCHOOL,SCOTTSDALE,MARICOPA,85253.0,PUBLIC,104,0.89
1002,IRA A FULTON ELEMENTARY,CHANDLER,MARICOPA,85248.0,PUBLIC,104,0.93
1003,NORTERRA CANYON K-8,PHOENIX,MARICOPA,85085.0,PUBLIC,104,0.88
1004,SUNBURST ELEMENTARY SCHOOL,GLENDALE,MARICOPA,85306.0,PUBLIC,104,0.97
1005,TOMAHAWK ELEMENTARY SCHOOL,PHOENIX,MARICOPA,85033.0,PUBLIC,104,0.96
1006,BOULDER CREEK ELEMENTARY SCHOOL,PHOENIX,MARICOPA,85024.0,PUBLIC,105,0.99
1007,CHANDLER TRADITIONAL ACADEMY - GOODMAN CAMPUS,CHANDLER,MARICOPA,85224.0,PUBLIC,105,0.96
1008,COLONEL JOHNSTON ELEMENTARY SCHOOL,FORT HUACHUCA,COCHISE,85613.0,PUBLIC,105,0.99
1009,DESERT SAGE ELEMENTARY SCHOOL,GLENDALE,MARICOPA,85310.0,PUBLIC,105,0.92
1010,FORT MOHAVE ELEMENTARY SCHOOL,FORT MOHAVE,MOHAVE,86426.0,PUBLIC,105,0.97
1011,IMAGINE ELEMENTARY AT COOLIDGE,COOLIDGE,PINAL,85128.0,CHARTER,105,0.96
1012,LEMAN ACADEMY OF EXCELLENCE - ORO VALLEY,ORO VALLEY,PIMA,85755.0,CHARTER,105,0.91
1013,QUAIL RUN ELEMENTARY SCHOOL,PHOENIX,MARICOPA,85050.0,PUBLIC,105,0.81
1014,VERRADO ELEMENTARY SCHOOL,BUCKEYE,MARICOPA,85396.0,PUBLIC,105,0.82
1015,ROBERT AND DANELL TARWATER ELEMENTARY,CHANDLER,MARICOPA,85248.0,PUBLIC,106,0.96
1016,TIERRA DEL SOL ELEMENTARY SCHOOL,SOMERTON,YUMA,85350.0,PUBLIC,106,0.97
1017,WHITMAN ELEMENTARY SCHOOL,MESA,MARICOPA,85201.0,PUBLIC,106,1.0
1018,BASIS SCOTTSDALE PRIMARY,SCOTTSDALE,MARICOPA,85259.0,CHARTER,107,0.92
1019,CORTINA ELEMENTARY,QUEEN CREEK,MARICOPA,85242.0,PUBLIC,107,0.89
1020,MARLEY PARK ELEMENTARY,SURPRISE,MARICOPA,85379.0,PUBLIC,107,0.86
1021,TUSCANO ELEMENTARY SCHOOL,PHOENIX,MARICOPA,85043.0,PUBLIC,107,0.99
1022,DREAMING SUMMIT ELEMENTARY,LITCHFIELD PARK,MARICOPA,85340.0,PUBLIC,108,0.89
1023,NEELY TRADITIONAL ACADEMY,GILBERT,MARICOPA,85233.0,PUBLIC,108,0.94
1024,PALM VALLEY ELEMENTARY,AVONDALE,MARICOPA,85340.0,PUBLIC,108,0.9
1025,ROUND VALLEY INTERMEDIATE SCHOOL,EAGAR,APACHE,85925.0,PUBLIC,108,0.88
1026,SUNSET HEIGHTS ELEMENTARY SCHOOL,PEORIA,MARICOPA,85382.0,PUBLIC,108,0.97
1027,SUPERSTITION SPRINGS ELEMENTARY,MESA,MARICOPA,85209.0,PUBLIC,108,0.94
1028,TAVAN ELEMENTARY SCHOOL,PHOENIX,MARICOPA,85018.0,PUBLIC,108,0.94
1029,ALTA E BUTLER SCHOOL,PHOENIX,MARICOPA,85009.0,PUBLIC,109,0.99
1030,KIVA ELEMENTARY SCHOOL,PARADISE VALLEY,MARICOPA,85253.0,PUBLIC,109,0.93
1031,MCCARTNEY RANCH ELEMENTARY SCHOOL,CASA GRANDE,PINAL,85122.0,PUBLIC,109,1.0
1032,ANNA MARIE JACOBSON  ELEMENTARY SCHOOL,CHANDLER,MARICOPA,85248.0,PUBLIC,110,0.92
1033,CRAYCROFT ELEMENTARY SCHOOL,TUCSON,PIMA,85756.0,PUBLIC,110,0.96
1034,DESERT MOUNTAIN ELEMENTARY,QUEEN CREEK,MARICOPA,85242.0,PUBLIC,110,0.9
1035,G FRANK DAVIDSON,PHOENIX,MARICOPA,85033.0,PUBLIC,110,1.0
1036,HERMOSA VISTA ELEMENTARY SCHOOL,MESA,MARICOPA,85213.0,PUBLIC,110,0.89
1037,KYRENE DEL CIELO SCHOOL,CHANDLER,MARICOPA,85226.0,PUBLIC,110,0.95
1038,COPPER RIM ELEMENTARY SCHOOL,GLOBE,GILA,85501.0,PUBLIC,111,0.98
1039,HALEY ELEMENTARY,CHANDLER,MARICOPA,85286.0,PUBLIC,111,0.96
1040,PARKRIDGE ELEMENTARY,PEORIA,MARICOPA,85382.0,PUBLIC,111,0.93
1041,ROGERS RANCH SCHOOL,LAVEEN,MARICOPA,85339.0,PUBLIC,111,0.95
1042,VENTANA VISTA ELEMENTARY SCHOOL,TUCSON,PIMA,85750.0,PUBLIC,111,0.93
1043,TRAILSIDE POINT ELEMENTARY,LAVEEN,MARICOPA,85339.0,PUBLIC,111,0.93
1044,ANZA TRAIL ELEMENTARY,SAHUARITA,PIMA,85629.0,PUBLIC,112,1.0
1045,CAMP VERDE MIDDLE SCHOOL,CAMP VERDE,YAVAPAI,86322.0,PUBLIC,112,0.77
1046,CORTE SIERRA ELEMENTARY SCHOOL,AVONDALE,MARICOPA,85392.0,PUBLIC,112,0.94
1047,FRANK BORMAN MIDDLE SCHOOL,PHOENIX,MARICOPA,85031.0,PUBLIC,112,0.99
1048,FRANKLIN ELEMENTARY SCHOOL,MESA,MARICOPA,85204.0,PUBLIC,112,0.94
1049,HIGHLAND PRIMARY SCHOOL,SNOWFLAKE,NAVAJO,85937.0,PUBLIC,112,0.91
1050,SYCAMORE ELEMENTARY,VAIL,PIMA,85641.0,PUBLIC,112,0.95
1051,TWIN PEAKS ELEMENTARY SCHOOL,TUCSON,PIMA,85743.0,PUBLIC,112,0.94
1052,BLUE RIDGE ELEMENTARY SCHOOL,LAKESIDE,NAVAJO,85929.0,PUBLIC,113,0.88
1053,GLADDEN FARMS ELEMENTARY SCHOOL,MARANA,PIMA,85653.0,PUBLIC,113,0.95
1054,GREAT HEART ACADEMIES ARCHWAY LINCOLN,CHANDLER,MARICOPA,,CHARTER,113,0.91
1055,LA PALOMA ACADEMY - LAKESIDE,TUCSON,PIMA,,CHARTER,113,0.99
1056,SUNRISE ELEMENTARY SCHOOL,YUMA,YUMA,85367.0,PUBLIC,113,0.97
1057,HIGLEY TRADITIONAL ACADEMY,GILBERT,MARICOPA,85295.0,PUBLIC,114,0.93
1058,MADISON CAMELVIEW ELEMENTARY,PHOENIX,MARICOPA,85016.0,PUBLIC,114,0.9
1059,ASHLAND ELEMENTARY,GILBERT,MARICOPA,85295.0,PUBLIC,115,0.93
1060,BASIS - PHOENIX PRIMARY,PHOENIX,MARICOPA,85028.0,CHARTER,115,0.96
1061,EMERSON ELEMENTARY SCHOOL,MESA,MARICOPA,85201.0,PUBLIC,115,0.97
1062,UNION ELEMENTARY SCHOOL,TOLLESON,MARICOPA,85353.0,PUBLIC,115,0.97
1063,THE PAIDEIA ACADEMY OF SOUTH PHOENIX,PHOENIX,MARICOPA,85042.0,CHARTER,115,0.9
1064,FIRESIDE ELEMENTARY SCHOOL,PHOENIX,MARICOPA,85050.0,PUBLIC,116,0.92
1065,MARY A OTONDO ELEMENTARY SCHOOL,YUMA,YUMA,85365.0,PUBLIC,116,0.96
1066,MARYVALE PREPARATORY ACADEMY,PHOENIX,MARICOPA,85031.0,CHARTER,116,0.92
1067,TRAILSIDE POINT ELEMENTARY,LAVEEN,MARICOPA,85339.0,PUBLIC,116,0.89
1068,ABIA JUDD ELEMENTARY SCHOOL,PRESCOTT,YAVAPAI,86305.0,PUBLIC,117,0.82
1069,GATEWAY POLYTECHNIC ACADEMY,MESA,MARICOPA,85212.0,PUBLIC,117,0.92
1070,GREAT HEARTS ACADEMIES - ARCHWAY NORTH PHOENIX,PHOENIX,MARICOPA,85032.0,CHARTER,117,0.94
1071,KYRENE DE LAS BRISAS SCHOOL,CHANDLER,MARICOPA,85226.0,PUBLIC,117,0.92
1072,VISTANCIA ELEMENTARY SCHOOL,PEORIA,MARICOPA,85383.0,PUBLIC,117,0.94
1073,SYNERGY PUBLIC SCHOOL,PHOENIX,MARICOPA,85017.0,CHARTER,117,0.8
1074,LEGACY TRADITIONAL SCHOOL - PEORIA,PEORIA,MARICOPA,85383.0,CHARTER,118,0.89
1075,MADISON HEIGHTS ELEMENTARY SCHOOL,PHOENIX,MARICOPA,85020.0,PUBLIC,118,0.95
1076,BICENTENNIAL SOUTH SCHOOL,GLENDALE,MARICOPA,85303.0,PUBLIC,119,0.98
1077,CACTUS VIEW ELEMENTARY SCHOOL,PHOENIX,MARICOPA,85022.0,PUBLIC,119,0.97
1078,DESERT MESA ELEMENTARY SCHOOL,YUMA,YUMA,,PUBLIC,119,1.0
1079,DR. GARY AND ANNETTE AUXIER ELEMENTARY SCHOOL,QUEEN CREEK,MARICOPA,85142.0,PUBLIC,119,0.92
1080,GREAT HEARTS ACADEMIES - ARCHWAY VERITAS,PHOENIX,MARICOPA,85018.0,CHARTER,119,0.92
1081,HIGHLAND PARK ELEMENTARY,GILBERT,MARICOPA,85234.0,PUBLIC,119,0.86
1082,ARIZONA CHARTER ACADEMY,SURPRISE,MARICOPA,85374.0,CHARTER,120,0.96
1083,BASIS CHANDLER PRIMARY NORTH CAMPUS,CHANDLER,MARICOPA,85225.0,CHARTER,120,0.94
1084,HIGHLAND ELEMENTARY SCHOOL,MESA,MARICOPA,85213.0,PUBLIC,120,0.93
1085,HORIZON COMMUNITY LEARNING CENTER,PHOENIX,MARICOPA,,CHARTER,121,0.9
1086,IMAGINE ELEMENTARY SCHOOL AT ROSEFIELD,SURPRISE,MARICOPA,85379.0,CHARTER,121,0.86
1087,WASHINGTON ELEMENTARY SCHOOL-85051,PHOENIX,MARICOPA,85051.0,PUBLIC,121,0.94
1088,AMERICAN LEADERSHIP ACADEMY - GILBERT,GILBERT,MARICOPA,85295.0,CHARTER,122,0.87
1089,HEATHERBRAE ELEMENTARY SCHOOL,PHOENIX,MARICOPA,85033.0,PUBLIC,122,0.96
1090,HUALAPAI ELEMENTARY SCHOOL,KINGMAN,MOHAVE,86401.0,PUBLIC,122,0.89
1091,ISHIKAWA ELEMENTARY SCHOOL,MESA,MARICOPA,85213.0,PUBLIC,122,0.94
1092,PALM LANE ELEMENTARY SCHOOL,PHOENIX,MARICOPA,85035.0,PUBLIC,122,0.93
1093,SUPERSTITION SPRINGS ELEMENTARY,MESA,MARICOPA,85209.0,PUBLIC,122,0.94
1094,UNION ELEMENTARY SCHOOL,TOLLESON,MARICOPA,85353.0,PUBLIC,122,0.98
1095,ACADEMY OF MATH AND SCIENCE - DESERT SKY,PHOENIX,MARICOPA,85035.0,CHARTER,123,1.0
1096,DESERT VALLEY ELEMENTARY,BULLHEAD CITY,MOHAVE,86442.0,PUBLIC,123,0.98
1097,JAMES KENDALL ZAHARIS ELEMENTARY,MESA,MARICOPA,85207.0,PUBLIC,123,0.9
1098,LEGACY TRADITIONAL CHARTER SCHOOL - LAVEEN VILLAGE,LAVEEN,MARICOPA,85339.0,CHARTER,123,0.93
1099,LEGACY TRADITIONAL SCHOOL - NORTHWEST TUCSON,TUCSON,PIMA,85742.0,CHARTER,123,0.97
1100,OCOTILLO ELEMENTARY SCHOOL,TUCSON,PIMA,85706.0,PUBLIC,123,0.98
1101,PARK MEADOWS ELEMENTARY SCHOOL,GLENDALE,MARICOPA,85308.0,PUBLIC,123,0.95
1102,WESTWIND PRIMARY,PHOENIX,MARICOPA,85037.0,PUBLIC,123,0.99
1103,COUNTRY MEADOWS ELEMENTARY SCHOOL,PEORIA,MARICOPA,85345.0,PUBLIC,124,0.97
1104,LITCHFIELD ELEMENTARY SCHOOL,LITCHFIELD PARK,MARICOPA,85340.0,PUBLIC,124,0.98
1105,STARLIGHT PARK SCHOOL,PHOENIX,MARICOPA,85033.0,PUBLIC,124,0.98
1106,THE PAIDEIA ACADEMY OF SOUTH PHOENIX,PHOENIX,MARICOPA,85042.0,CHARTER,124,0.96
1107,VISTANCIA ELEMENTARY SCHOOL,PEORIA,MARICOPA,85383.0,PUBLIC,124,0.91
1108,ACACIA ELEMENTARY SCHOOL,PHOENIX,MARICOPA,85053.0,PUBLIC,125,0.96
1109,CHAPARRAL ELEMENTARY SCHOOL-85295,GILBERT,MARICOPA,85295.0,PUBLIC,125,0.91
1110,LEMAN ACADEMY OF EXCELLENCE - MARANA,TUCSON,PIMA,85743.0,CHARTER,125,0.98
1111,SONORAN FOOTHILLS SCHOOL,PHOENIX,MARICOPA,85085.0,PUBLIC,125,0.92
1112,WASHINGTON ELEMENTARY SCHOOL-85051,PHOENIX,MARICOPA,85051.0,PUBLIC,125,0.97
1113,BASIS - ORO VALLEY PRIMARY,ORO VALLEY,PIMA,85737.0,CHARTER,126,0.96
1114,BASIS - PEORIA PRIMARY,PEORIA,MARICOPA,85383.0,CHARTER,126,0.95
1115,NEVITT ELEMENTARY SCHOOL,PHOENIX,MARICOPA,85042.0,PUBLIC,126,1.0
1116,ACADEMY OF MATH AND SCIENCE PEORIA ADVANCED,PEORIA,MARICOPA,85345.0,CHARTER,127,0.67
1117,AUGUSTA RANCH ELEMENTARY,MESA,MARICOPA,85209.0,PUBLIC,127,0.96
1118,CHANDLER TRADITIONAL ACADEMY - LIBERTY CAMPUS,CHANDLER,MARICOPA,85225.0,PUBLIC,127,0.95
1119,DESERT WILLOW ELEMENTARY SCHOOL,TUCSON,PIMA,85747.0,PUBLIC,127,0.97
1120,GALLEGO BASIC ELEMENTARY SCHOOL,TUCSON,PIMA,85706.0,PUBLIC,127,1.0
1121,FRANKLIN AT BRIMHALL ELEMENTARY SCHOOL,MESA,MARICOPA,,PUBLIC,128,0.92
1122,MARICOPA ELEMENTARY SCHOOL,MARICOPA,PINAL,85139.0,PUBLIC,128,0.98
1123,SUNSET ELEMENTARY SCHOOL,PHOENIX,MARICOPA,85033.0,PUBLIC,128,0.96
1124,NOAH WEBSTER SCHOOLS - MESA,,MARICOPA,,PRIVATE,129,0.92
1125,ACACIA ELEMENTARY SCHOOL,VAIL,PIMA,85641.0,PUBLIC,130,0.96
1126,SHAW BUTTE SCHOOL,PHOENIX,MARICOPA,85029.0,PUBLIC,130,0.95
1127,PASEO POINTE SCHOOL,LAVEEN,MARICOPA,85339.0,PUBLIC,131,0.95
1128,WHIPPLE RANCH ELEMENTARY SCHOOL,SHOW LOW,NAVAJO,85901.0,PUBLIC,131,0.77
1129,FAITH MATHER SOSSAMAN ELEMENTARY,QUEEN CREEK,MARICOPA,85142.0,PUBLIC,132,0.88
1130,BLAKE PRIMARY SCHOOL,PARKER,LA PAZ,85344.0,PUBLIC,134,0.95
1131,CERBAT ELEMENTARY SCHOOL,KINGMAN,MOHAVE,86409.0,PUBLIC,134,0.75
1132,SILVER VALLEY ELEMENTARY,MESA,MARICOPA,85212.0,PUBLIC,134,0.71
1133,CHANDLER TRADITIONAL ACADEMY - INDEPENDENCE,CHANDLER,MARICOPA,85248.0,PUBLIC,135,0.96
1134,LEMAN ACADEMY OF EXCELLENCE - EAST CAMPUS,TUCSON,PIMA,85743.0,CHARTER,135,0.97
1135,ECHO MOUNTAIN PRIMARY SCHOOL,PHOENIX,MARICOPA,85022.0,PRIVATE,136,0.91
1136,JOHN F LONG SCHOOL,PHOENIX,MARICOPA,85031.0,PUBLIC,136,0.99
1137,CHARLOTTE PATTERSON ELEMENTARY,GILBERT,MARICOPA,85298.0,PUBLIC,137,0.96
1138,JACK DALEY PRIMARY SCHOOL,THATCHER,GRAHAM,,PUBLIC,137,0.95
1139,PATTERSON ELEMENTARY SCHOOL,GILBERT,MARICOPA,85234.0,PUBLIC,137,0.96
1140,WILSON ELEMENTARY SCHOOL,PHOENIX,MARICOPA,85008.0,PUBLIC,137,0.99
1141,LEGACY TRADITIONAL CHARTER SCHOOL - GILBERT,GILBERT,MARICOPA,85295.0,CHARTER,139,0.91
1142,SAHUARITA PRIMARY SCHOOL,SAHUARITA,PIMA,85629.0,PUBLIC,139,0.96
1143,BURKE BASIC SCHOOL,MESA,MARICOPA,85210.0,CHARTER,140,0.99
1144,RICE SCHOOL,SAN CARLOS,GILA,85550.0,PUBLIC,140,1.0
1145,LEGACY TRADITIONAL SCHOOL - MARICOPA,MARICOPA,PINAL,85138.0,CHARTER,141,0.87
1146,WILLIAM C JACK SCHOOL,GLENDALE,MARICOPA,85301.0,PUBLIC,142,0.98
1147,LEGACY TRADITIONAL SCHOOL - GLENDALE,GLENDALE,MARICOPA,85306.0,PUBLIC,143,0.88
1148,TOMAHAWK ELEMENTARY SCHOOL,PHOENIX,MARICOPA,85033.0,PUBLIC,143,0.98
1149,BONNIE BRENNAN SCHOOL,WINSLOW,NAVAJO,86047.0,PUBLIC,144,0.99
1150,LEGACY TRADITIONAL SCHOOL - CHANDLER,CHANDLER,MARICOPA,85286.0,CHARTER,144,0.97
1151,SAN TAN ELEMENTARY,GILBERT,MARICOPA,85297.0,PUBLIC,146,0.96
1152,LOOKOUT MOUNTAIN SCHOOL,PHOENIX,MARICOPA,85023.0,PUBLIC,147,0.93
1153,PALOMINO PRIMARY SCHOOL,PHOENIX,MARICOPA,85032.0,PUBLIC,147,0.97
1154,METCALF ELEMENTARY SCHOOL,MORENCI,GREENLEE,85540.0,PUBLIC,148,0.99
1155,MANZANITA ELEMENTARY SCHOOL,KINGMAN,MOHAVE,86401.0,PUBLIC,150,0.89
1156,PERALTA ELEMENTARY SCHOOL,PHOENIX,MARICOPA,85035.0,PUBLIC,152,0.99
1157,LEGACY TRADITIONAL SCHOOL-QUEEN CREEK,QUEEN CREEK,PINAL,85140.0,CHARTER,154,0.86
1158,WESTWOOD PRIMARY SCHOOL,PHOENIX,MARICOPA,85015.0,PUBLIC,154,0.99
1159,MADISON RICHARD SIMIS SCHOOL,PHOENIX,MARICOPA,85020.0,PUBLIC,155,0.9
1160,DESERT GARDEN ELEMENTARY SCHOOL,GLENDALE,MARICOPA,85303.0,PUBLIC,157,0.98
1161,GREENFIELD ELEMENTARY SCHOOL,GILBERT,MARICOPA,85234.0,PUBLIC,158,0.95
1162,LEGACY TRADITIONAL SCHOOL - AVONDALE,AVONDALE,MARICOPA,85323.0,CHARTER,159,0.93
1163,BASIS - TUCSON MIDDLE SCHOOL,TUCSON,PIMA,85716.0,CHARTER,160,0.97
1164,LEGACY TRADITIONAL SCHOOL - CASA GRANDE,CASA GRANDE,PINAL,85138.0,CHARTER,160,0.93
1165,IMAGINE ELEMENTARY AT DESERT WEST,PHOENIX,MARICOPA,85035.0,CHARTER,161,0.96
1166,TERRITORIAL EARLY CHILDHOOD CENTER,CHINO VALLEY,YAVAPAI,86323.0,PRIVATE,163,0.86
1167,WILLIAM C JACK SCHOOL,GLENDALE,MARICOPA,85301.0,PUBLIC,165,0.97
1168,DESERT VIEW ACADEMY,YUMA,YUMA,85364.0,CHARTER,166,0.96
1169,MOUNTAIN VIEW ELEMENTARY SCHOOL,PHOENIX,MARICOPA,85029.0,PUBLIC,168,1.0
1170,LEGACY TRADITIONAL SCHOOL - PHOENIX,PHOENIX,MARICOPA,85037.0,CHARTER,169,0.95
1171,LEGACY TRADITIONAL SCHOOL - NORTH CHANDLER,CHANDLER,MARICOPA,85225.0,CHARTER,170,0.93
1172,ENCANTO ELEMENTARY SCHOOL,PHOENIX,MARICOPA,85013.0,PUBLIC,173,0.96
1173,PAYSON ELEMENTARY SCHOOL,PAYSON,GILA,85541.0,PUBLIC,174,0.92
1174,SEVILLA PRIMARY SCHOOL,PHOENIX,MARICOPA,85019.0,PUBLIC,174,0.97
1175,LEGACY TRADITIONAL SCHOOL- EAST MESA,MESA,MARICOPA,85212.0,CHARTER,177,0.92
1176,TERRITORIAL EARLY CHILDHOOD CENTER,CHINO VALLEY,YAVAPAI,86323.0,PUBLIC,177,0.84
1177,ARCHWAY CLASSICAL ACADEMY - SCOTTSDALE,SCOTTSDALE,MARICOPA,85260.0,CHARTER,178,0.9
1178,MADISON ROSE LANE SCHOOL,PHOENIX,MARICOPA,85014.0,PUBLIC,179,0.92
1179,ACADEMY OF MATH AND SCIENCE GLENDALE,GLENDALE,MARICOPA,85301.0,CHARTER,185,0.9
1180,AVONDALE MIDDLE SCHOOL,AVONDALE,MARICOPA,85323.0,PUBLIC,185,0.88
1181,EDUPRIZE SCHOOL - GILBERT,GILBERT,MARICOPA,85233.0,CHARTER,189,0.77
1182,PARADISE HONORS ELEMENTARY SCHOOL,SURPRISE,MARICOPA,85374.0,CHARTER,192,0.89
1183,GRANADA PRIMARY SCHOOL,PHOENIX,MARICOPA,85017.0,PUBLIC,194,1.0
1184,DESERT SPRINGS ACADEMY,TUCSON,PIMA,85748.0,CHARTER,200,0.5
1185,LEGACY TRADITIONAL SCHOOL SURPRISE,SURPRISE,MARICOPA,85379.0,CHARTER,207,0.93
1186,EDUPRIZE SCHOOL,QUEEN CREEK,PINAL,85142.0,CHARTER,230,0.88
1187,HOLIDAY PARK ELEMENTARY SCHOOL,PHOENIX,MARICOPA,85033.0,PUBLIC,239,1.0
